{"type":"Feature","properties":{},"geometry":{"type":"MultiPolygon","coordinates":[[[[-88.94131218652161,41.71634675058592],[-88.9423121834503,41.716743449012675],[-88.94266999699728,41.71751245059763],[-88.9422900070187,41.89175557853178],[-88.94268999412104,41.93090657102277],[-88.94314999412104,42.06505657102277],[-88.94292681967727,42.06568972310504],[-88.94244817259404,42.06601451197172],[-88.939952114608,42.066080631127384],[-88.94089992759207,42.14483796627192],[-88.9406922975409,42.15263517108904],[-88.94037129067648,42.15310554631183],[-88.93974951056133,42.15332995477359],[-88.82829951056132,42.15438995477359],[-88.70658828483909,42.15453878035013],[-88.70642000227828,42.25244953381296],[-88.70694997858575,42.41499245313605],[-88.7074398413295,42.458320312960545],[-88.70842960606997,42.49357193391919],[-88.70832435913161,42.4940473496884],[-88.70800706226214,42.49441670015649],[-88.70745488100398,42.4945996904199],[-88.65803488100399,42.4958296904199],[-88.59942392555432,42.49605999229498],[-88.471628308672,42.49563],[-88.33492139146333,42.49563],[-88.23790506785812,42.495899989768844],[-88.13858311547425,42.49648514430592],[-88.1381,42.49661],[-88.09422067796595,42.49662999977018],[-88.06893272217236,42.49655997351626],[-87.95012570298063,42.495599897792395],[-87.8065280842621,42.493629929005074],[-87.80576015419642,42.49332095558681],[-87.80496494957049,42.49360788854753],[-87.8028147002235,42.493484183838824],[-87.802286407771,42.49292833720149],[-87.80147163649333,42.489870516827956],[-87.80106739241984,42.48995997267569],[-87.80058875755688,42.4898420037187],[-87.80017411021491,42.48942389577349],[-87.80005341588392,42.48892370412714],[-87.79958918418271,42.48886263709233],[-87.7991876931975,42.48857721583638],[-87.79766960733674,42.48509705386537],[-87.79822691007794,42.47988731270187],[-87.7991076044489,42.47888987675538],[-87.79985968764689,42.478712874858644],[-87.79900827863852,42.47572442923927],[-87.7980187880539,42.47416358711081],[-87.79763904344728,42.472897527374826],[-87.79654169129117,42.47151734932294],[-87.79652484124414,42.470938334992816],[-87.79680944019846,42.47046395396213],[-87.79638882930493,42.469242592055714],[-87.79635030220103,42.46791458273277],[-87.79646303184091,42.46742816941981],[-87.79671576098418,42.46711686296763],[-87.79765630114329,42.46686166941252],[-87.79822172843194,42.465584898115594],[-87.79792326135674,42.46389069744141],[-87.79804095543304,42.46333326039675],[-87.79836163385578,42.462980405370686],[-87.79925402966636,42.46249209829499],[-87.79937401335276,42.462248888119845],[-87.79924234355353,42.45710436096422],[-87.79870014076269,42.454096778127614],[-87.79900505373051,42.44953713922876],[-87.79999298699083,42.443949955003006],[-87.80144087866917,42.44095361395639],[-87.80165985132145,42.4389117361154],[-87.80221391671812,42.43751449024316],[-87.80289200807526,42.43204135725476],[-87.80347381320337,42.43013272579626],[-87.80292007406582,42.424932170708225],[-87.80316220603038,42.4219528310929],[-87.80209749729944,42.41633624833802],[-87.80190085395604,42.413631318069484],[-87.80159008398697,42.40751296020439],[-87.80203601523785,42.404760359807376],[-87.80162403247684,42.39612834005291],[-87.8006980911837,42.390443047646116],[-87.8010068187591,42.38983975114371],[-87.80234005911156,42.38926021222144],[-87.80325824989437,42.38810482215308],[-87.80377542662718,42.38657024856883],[-87.8039903769945,42.384369154867805],[-87.80457393509644,42.382587806797254],[-87.80525417464524,42.38208936121306],[-87.80633547803491,42.382288395862915],[-87.8086904790703,42.3767941397955],[-87.81150396672632,42.37159403847264],[-87.8120451712257,42.367646978072045],[-87.81181513471779,42.36439238747869],[-87.80984144800442,42.36289192583459],[-87.80964062190745,42.36225473772409],[-87.80982562116994,42.36170966637084],[-87.81028044654016,42.361356875512314],[-87.81094828610897,42.36133870631505],[-87.81337970135093,42.3629697511758],[-87.81450489016814,42.36311651493457],[-87.81525357622658,42.362400859143406],[-87.81430774625468,42.3623131900385],[-87.81390708523006,42.36205032046861],[-87.8136829428496,42.36165665408837],[-87.81300380234627,42.36160196795999],[-87.81259208543048,42.3613461312167],[-87.8123161869885,42.36053893381176],[-87.81268421976033,42.35987000058228],[-87.81331931636585,42.359650043398275],[-87.81877453047339,42.35970086837443],[-87.81888361971065,42.35602394090956],[-87.81909561449703,42.355595240507746],[-87.81979360889167,42.35501049106521],[-87.82033857311086,42.3547933206826],[-87.82082286743659,42.35487474166022],[-87.82121000207376,42.35517689582985],[-87.8214168831999,42.355716462860826],[-87.8241189923137,42.35577160794478],[-87.82482756834708,42.355074279150024],[-87.82558050088433,42.34862322753449],[-87.82542084886069,42.347353098592194],[-87.82598448932889,42.34609927377801],[-87.82572030240435,42.34363459099945],[-87.82581554384934,42.33811436945757],[-87.82656858973031,42.336147034036316],[-87.82950324236644,42.33104127040926],[-87.83046184109224,42.330071228797344],[-87.83070284775658,42.326884585124446],[-87.83092492032243,42.32584180877384],[-87.82952435077776,42.32236318061085],[-87.82966472477605,42.321660528100885],[-87.82938802514606,42.32072356468399],[-87.82989815488655,42.31913325768018],[-87.82980005440608,42.31868043116479],[-87.82992482570805,42.31818762191823],[-87.82950015911466,42.31703216172687],[-87.82982324771241,42.31631514006035],[-87.82762962851889,42.312188852655446],[-87.82554953363116,42.310941939922266],[-87.82527320535421,42.3105218383114],[-87.825183022304,42.309802311688784],[-87.82534522418406,42.309329410009944],[-87.82562906669817,42.30904545072228],[-87.82676428130624,42.30869287078099],[-87.82735219113268,42.308831128505766],[-87.82862778650976,42.30977432970901],[-87.82963566382077,42.30997854014458],[-87.83113966425826,42.30934335549379],[-87.83125809414709,42.308389372488925],[-87.83102745127943,42.30795269934705],[-87.83102970466854,42.307478076520894],[-87.83195999944857,42.3060723934499],[-87.83145484073017,42.305323092434634],[-87.83141080859944,42.30463724240578],[-87.83181983047065,42.30408494701427],[-87.83266546893431,42.30389255367449],[-87.83336372372891,42.30224521469307],[-87.83316802030427,42.29978615861831],[-87.83249510760855,42.29837738107549],[-87.83199790512849,42.296135490102934],[-87.83209687871752,42.29479755113694],[-87.832821233069,42.294037704379335],[-87.83152667669967,42.290738343472114],[-87.83156512933824,42.288553189987915],[-87.83085255114612,42.285693969991996],[-87.83040762411585,42.285011721654605],[-87.83035573494041,42.284124041986665],[-87.82883794118354,42.28045250736809],[-87.82823018546529,42.27991501507495],[-87.82811691412331,42.278839854103495],[-87.82749792963256,42.27754851470338],[-87.8275473654657,42.275064448465365],[-87.8280162755124,42.274388823234666],[-87.82802453401993,42.274127303829644],[-87.82741171461038,42.27235261713096],[-87.8274639614397,42.27038218144632],[-87.82695553613031,42.268832693291564],[-87.82556748592162,42.26710904529916],[-87.82536058375536,42.26638416386917],[-87.82557701793215,42.2657288994283],[-87.8250184655238,42.26495365302093],[-87.82504927165174,42.26415827753066],[-87.82362321247572,42.26110717417733],[-87.82074227252686,42.25708526791208],[-87.81937137233109,42.25608491000876],[-87.8180203431619,42.254205360610705],[-87.81770434466897,42.25317930954161],[-87.81767102121731,42.25250378024839],[-87.81667160278833,42.25082941299171],[-87.81666967486993,42.25033819606711],[-87.81696820857353,42.249839629312596],[-87.81646394828473,42.24889643922267],[-87.81668545442051,42.247872804742926],[-87.81561704971683,42.245689678979815],[-87.81554334263086,42.24456583216034],[-87.81507786852416,42.24357520037794],[-87.81523252372527,42.24290527031531],[-87.81424405477424,42.24119130330596],[-87.81406716510234,42.240026381972804],[-87.81325661541364,42.23841812336476],[-87.81296279815263,42.23671577980199],[-87.8122762918486,42.23575399229081],[-87.8118511712304,42.23442116130527],[-87.81153571359395,42.23402506834944],[-87.81125823475678,42.232539276530204],[-87.8105517834932,42.23154604392335],[-87.81058581102788,42.23087806447689],[-87.81109407039281,42.23035171402037],[-87.81072905178966,42.22924144910247],[-87.80756789666943,42.22489722694621],[-87.80567816658177,42.22336719144237],[-87.80554104264914,42.22290565316156],[-87.80566828246893,42.22237194907652],[-87.80521976009469,42.22177549194393],[-87.80513256893853,42.22111072370674],[-87.80360423488304,42.21818809912487],[-87.80357301217478,42.217521625926956],[-87.80290823944368,42.216346841723755],[-87.80134717138168,42.211504726417694],[-87.8001932082093,42.21070189590254],[-87.79957651630694,42.20977363767887],[-87.79956725790949,42.209032375665075],[-87.79852549312115,42.207869475436226],[-87.79803976603516,42.20774159087864],[-87.79768399435197,42.207403173933635],[-87.79753054315108,42.20683704537745],[-87.79769111722594,42.20632792867179],[-87.79723521319303,42.20571734291343],[-87.79566927344018,42.20432145992615],[-87.7955138609881,42.20386778991384],[-87.79561854733514,42.203150058733286],[-87.79525757435897,42.202282335232894],[-87.79328060308382,42.199430934355256],[-87.79136872102157,42.19739145529541],[-87.79116239565235,42.196727882491096],[-87.78872921867473,42.193697877007935],[-87.78676483097084,42.19227638784212],[-87.78570044100168,42.190502387045115],[-87.78565048328275,42.19001558162769],[-87.78587828720978,42.1895138036809],[-87.78555091716078,42.18874353548754],[-87.7804913322028,42.18285147768457],[-87.77973576898857,42.18177704364878],[-87.77964793223833,42.181233839732364],[-87.77341664906483,42.17360520541873],[-87.77167076837763,42.172054266936904],[-87.7713687985122,42.17131301207458],[-87.76748083826885,42.167399008786695],[-87.76734184419396,42.1665929141469],[-87.76511921302361,42.163520494847134],[-87.76379835954596,42.162304126451374],[-87.7636513621951,42.161832177913176],[-87.76375576959346,42.16133385608742],[-87.76290912668674,42.16032150755054],[-87.76278945437606,42.159701988925306],[-87.76078433442025,42.15754371315071],[-87.76064209859241,42.15686229281041],[-87.76034035339534,42.156361208808804],[-87.7603152958351,42.155909352156115],[-87.75798878887171,42.15282070679452],[-87.75263351671572,42.14448917743659],[-87.75039382870396,42.14161927418343],[-87.74709749216012,42.13838875377216],[-87.74692288979864,42.13774403128045],[-87.74717354432167,42.13715608632897],[-87.74643155069045,42.13613142845728],[-87.74477174271219,42.134624519219145],[-87.74452267239107,42.134105527063284],[-87.74352474643497,42.13323476238668],[-87.74094474643498,42.12946476238668],[-87.74025749382942,42.12801696348496],[-87.73489632982401,42.12089469115837],[-87.73031636261813,42.11745744844346],[-87.72955468669407,42.11753074089979],[-87.72904390192913,42.1172581140546],[-87.72858898887341,42.11668309554513],[-87.72847000310726,42.11621249289247],[-87.72858664107821,42.11574130285335],[-87.72889494240647,42.11539286132918],[-87.72883734983368,42.114918980797775],[-87.72901788710995,42.11445695507489],[-87.72614537682429,42.11123999058751],[-87.72536119404974,42.10984127531774],[-87.71402276570743,42.09915414050945],[-87.71022562869491,42.09626949378676],[-87.70646562587878,42.09383901485358],[-87.70527088868569,42.092532664442075],[-87.70226709738134,42.09053647401829],[-87.69970622316166,42.089245625382105],[-87.69926854680563,42.08863500603804],[-87.69837959094373,42.08807250289379],[-87.69764889312366,42.08792443466542],[-87.69668876223935,42.08682115367776],[-87.69405592225657,42.085271325886474],[-87.6890014807385,42.08279850713987],[-87.68137579991178,42.07949884147396],[-87.67990609056123,42.07979795570224],[-87.67944510255535,42.07965116547898],[-87.67910697063402,42.07930515375231],[-87.6789708370456,42.07884090709662],[-87.67911337501504,42.07828439186303],[-87.6786052845386,42.077877382110614],[-87.67838042630977,42.07745479963074],[-87.67848522129859,42.076707846838524],[-87.67899026428157,42.076276945761016],[-87.68107080901737,42.07580751959922],[-87.68111259280805,42.07563364511544],[-87.67874949644735,42.07224596930229],[-87.67645966436068,42.06854326209829],[-87.6750862494353,42.067132141282514],[-87.67456490637593,42.06553533840349],[-87.67314353289981,42.064566201614],[-87.67305474449499,42.06372699176071],[-87.67234764134766,42.062118678719706],[-87.6712598520279,42.061004518749776],[-87.6707076106125,42.061066726753886],[-87.66920111390277,42.060667165135484],[-87.66880378572343,42.060395705831006],[-87.66857925079965,42.05997009579342],[-87.669095802672,42.05595305057309],[-87.66840224480666,42.05196025066894],[-87.66885449032367,42.05131921237663],[-87.67011446190719,42.05097122499985],[-87.67020258058169,42.05020179771085],[-87.67055786672724,42.049736906614996],[-87.67101381552231,42.04955799320688],[-87.67148350649366,42.04959440641238],[-87.67158640221625,42.0492028310236],[-87.67122608887121,42.048129815300236],[-87.6713905654279,42.047681396123714],[-87.67181448576319,42.04732670095343],[-87.6711196689065,42.045721780001244],[-87.67099858917732,42.04423591733003],[-87.66861370266466,42.04178779519014],[-87.66836052824888,42.04133520302564],[-87.66811169034047,42.039501880952514],[-87.66853935449016,42.03866486504822],[-87.6685787819898,42.037427762122434],[-87.66881758924931,42.03689833923764],[-87.66810792110977,42.035698470298335],[-87.66813840725608,42.03520263824293],[-87.66846920893585,42.034726809208884],[-87.66755980405118,42.02880349946767],[-87.66611002746033,42.02735310017261],[-87.6659863734824,42.02675767733978],[-87.66552223567675,42.02614047612864],[-87.66421223567674,42.02347047612864],[-87.66389604085066,42.02251281306796],[-87.66316810763003,42.02180224772014],[-87.66281391967397,42.020556269632294],[-87.66287513340582,42.02001237482871],[-87.6622706633452,42.01870573654518],[-87.66216292827347,42.01717041299526],[-87.65985998544058,42.01237706339248],[-87.65797693055534,42.010700153798275],[-87.65772284160016,42.0101798121312],[-87.65462515484471,42.00749576307306],[-87.65434223511264,42.00708727081077],[-87.65431057803261,42.006494600225885],[-87.6546204101096,42.00598837431093],[-87.65536225154851,42.00539690570021],[-87.65621745958995,42.005301034067266],[-87.65579426370485,42.00433224549052],[-87.65606610363795,42.003551467154274],[-87.65524226831316,42.001557663025146],[-87.6549024090233,41.99990611562775],[-87.65430790338058,41.999309348002846],[-87.65377998678004,41.99838893237221],[-87.65358006499306,41.99645140096127],[-87.65380028190997,41.99548648284767],[-87.6534501672912,41.99419829082838],[-87.65370286661847,41.99330844182151],[-87.65331337191914,41.9925429878218],[-87.65337583666555,41.990219920624284],[-87.65322015410528,41.989566053871194],[-87.64941382887669,41.985647924725264],[-87.6491696471513,41.98522878738489],[-87.64915143724359,41.98474405114283],[-87.64951140391912,41.98385193468656],[-87.64973971969482,41.98239747863397],[-87.64945087915295,41.98020385181606],[-87.64648134310607,41.97845557108772],[-87.64564829554935,41.977590904299234],[-87.64544284621988,41.97705539455411],[-87.6451514921715,41.973202002301264],[-87.64344106089204,41.97047600244964],[-87.641156525432,41.96847819006353],[-87.63883488383799,41.96714760496024],[-87.63628826809774,41.966522442973464],[-87.63181864796748,41.96623689691538],[-87.63129235861236,41.96597605049549],[-87.6310294357368,41.96556052790783],[-87.6304701354902,41.96294646092523],[-87.63058455644081,41.96246525307587],[-87.63091560394574,41.96209774702462],[-87.6338877523583,41.9605156526472],[-87.63616937024516,41.958817290945724],[-87.63903614947237,41.95854001890818],[-87.64068900204606,41.95897055288925],[-87.64071380356832,41.95862905500597],[-87.64010803613247,41.95509856666904],[-87.6373504375912,41.94870309699199],[-87.63605413989781,41.94674939118266],[-87.63252168005765,41.943161782308145],[-87.63243609237088,41.9419530552271],[-87.6329503305426,41.941292770858944],[-87.63300686182038,41.940494684641514],[-87.63254470957625,41.939189307250246],[-87.63132179111548,41.93722205949351],[-87.6309058001918,41.935843448694506],[-87.62958303651955,41.93381020836842],[-87.62962189931724,41.933123652757885],[-87.63001528903142,41.93266113125366],[-87.62977088213462,41.931958006059034],[-87.6301529413095,41.93029064561372],[-87.63010535052533,41.92948840096611],[-87.62864943709262,41.92685053205812],[-87.62875768616139,41.92598855969971],[-87.62833651285317,41.924887754585164],[-87.62836460320821,41.92426968045004],[-87.62768376861533,41.92302673539173],[-87.62776460713594,41.922537438322195],[-87.628080488769,41.92213092341168],[-87.6275889757364,41.92128646403883],[-87.62765798229778,41.92055998350968],[-87.62711942484765,41.91972049457282],[-87.62713569473142,41.91905578537444],[-87.62651827957949,41.91815403253961],[-87.62653982120251,41.91753712488777],[-87.62598318896009,41.91686804168728],[-87.62355085756376,41.915124105969156],[-87.62215189189416,41.91462230306593],[-87.62002037335238,41.915141856269784],[-87.6195870135417,41.91494223262063],[-87.61926080046292,41.914474674814386],[-87.61930986744301,41.91372438390775],[-87.62022342294952,41.912305741041294],[-87.620578427496,41.91210655675322],[-87.62252262757407,41.91169927309327],[-87.62377565145887,41.91069685398542],[-87.62423792271909,41.909510127765195],[-87.6231391297596,41.904593999376566],[-87.62193830818032,41.90354366489323],[-87.62169562948631,41.90273690471596],[-87.61942969462784,41.90240069734115],[-87.6189338323829,41.90210679926088],[-87.61773952980943,41.900802500512505],[-87.6137874299185,41.89465455840004],[-87.61318831560695,41.89411885899571],[-87.61275466792817,41.894175838970035],[-87.61103223086728,41.896822988659814],[-87.6105598425533,41.89715078787969],[-87.60228666180177,41.89733652132176],[-87.6017541137967,41.89712783512526],[-87.60139645489092,41.89656849490278],[-87.60136600859211,41.89316967351496],[-87.59832692648573,41.89318309922611],[-87.5978882411634,41.892983208751936],[-87.59755937743907,41.89251034939446],[-87.59763856352002,41.89102609605145],[-87.59827181532867,41.89043549180109],[-87.6002036242559,41.89038300956838],[-87.60091837287905,41.89007006759726],[-87.60851844047629,41.88998169471822],[-87.60858177569276,41.88887797898523],[-87.60911691390194,41.88833049833088],[-87.61128882751301,41.88823006241418],[-87.61184283013971,41.888390716305985],[-87.61173002313771,41.88792319743631],[-87.6118344144214,41.883141461578305],[-87.61314913868698,41.881898762276194],[-87.61477203075816,41.88148650616689],[-87.61480443730828,41.880211405621154],[-87.61545045357575,41.87963093576031],[-87.61519084800236,41.873331173846054],[-87.6152518492725,41.86941201230647],[-87.6150770392707,41.86928434208044],[-87.61336899224774,41.86943993941286],[-87.6129619616924,41.869348429399224],[-87.61158632832534,41.86866802400245],[-87.61131213123869,41.8682669901822],[-87.61123667051,41.86772781488179],[-87.60800571204332,41.86777655778969],[-87.60717864612658,41.86815597214308],[-87.60671358944688,41.86816846547387],[-87.6052894624375,41.86768127150795],[-87.60467416261893,41.86666914890189],[-87.60468938789407,41.86609961858292],[-87.60508,41.8653603007739],[-87.60519795332476,41.864268837965554],[-87.60569672660309,41.86381636505955],[-87.60632435313686,41.863768964183926],[-87.60610310978088,41.863132889535514],[-87.60530164345535,41.86268537250253],[-87.60499612163524,41.86207047984457],[-87.60501169847426,41.85978424103556],[-87.60542188282008,41.85923359844747],[-87.60601924756541,41.859062910897556],[-87.60558064707584,41.85289578824755],[-87.60585082268003,41.85247602577155],[-87.60629024614362,41.85223916629212],[-87.60883723051366,41.85211615388647],[-87.60826508851669,41.851070752867784],[-87.6083759453093,41.8480392173343],[-87.60751426644734,41.846232275089356],[-87.60804105415639,41.844283388650055],[-87.60720293066055,41.84266488990361],[-87.60713,41.84168338203757],[-87.60627448955296,41.84002994357743],[-87.60527820394813,41.838937675171714],[-87.6050181715742,41.83684958301755],[-87.60372624128358,41.83530625731766],[-87.60365679292899,41.83471750656037],[-87.60400337733793,41.8341224090997],[-87.60301727049716,41.833926499524644],[-87.60204969607184,41.83300540049546],[-87.6018435889515,41.83254429620625],[-87.60175677367268,41.831241669193766],[-87.60077702153954,41.83017285375635],[-87.60075592955201,41.829026834310085],[-87.59987446963632,41.82772932531419],[-87.59866179120783,41.827283679827325],[-87.59829975832041,41.82699279530664],[-87.59768942604362,41.82600610396298],[-87.59755509373205,41.824950720666244],[-87.59679072187875,41.82412794571005],[-87.5960819293911,41.82267340700936],[-87.59400851929192,41.82015992619523],[-87.59353230406944,41.82003852524035],[-87.59203943615657,41.81897507606443],[-87.59139461344147,41.81795902469218],[-87.59134190491204,41.817264377860695],[-87.58961225178962,41.815086056715],[-87.5893787985122,41.814283012074576],[-87.58831116726931,41.81321538083169],[-87.58696751535483,41.81279133890194],[-87.5862907865497,41.81207675864482],[-87.58608832531357,41.811640564451075],[-87.58596630342588,41.81040453657381],[-87.58448602003321,41.80798383784934],[-87.5808087063895,41.80520956072067],[-87.57961113356482,41.80477336790999],[-87.5792373961634,41.80446651243197],[-87.57905010860304,41.80372817256178],[-87.57966675715066,41.8023012909858],[-87.57985584965286,41.80076491440541],[-87.57915994570958,41.79904470241078],[-87.5777807624787,41.79792860037422],[-87.57572337551436,41.79800380048955],[-87.57437516175035,41.797044415149394],[-87.5742661300899,41.7963811145618],[-87.57448762826289,41.79518826365794],[-87.57471961667137,41.79477696252426],[-87.57573666649468,41.794227191019225],[-87.57807687698248,41.79364422162136],[-87.57844164769303,41.79328917812976],[-87.57854713165166,41.79291998427455],[-87.57753331776232,41.79070076961915],[-87.57564054410696,41.78909580040719],[-87.57564718942947,41.788249961543855],[-87.57627879617262,41.78765355594652],[-87.57611431509235,41.78645790501702],[-87.57490130775236,41.784234058227],[-87.57292525145945,41.78314001847685],[-87.57087558397014,41.782553109283874],[-87.56937811093452,41.78246030391115],[-87.56888241876254,41.78216525840843],[-87.5685517695331,41.7812794637279],[-87.56886361500959,41.78049276163129],[-87.57129657852549,41.77972643205025],[-87.56957878081344,41.778154485087335],[-87.56805681933373,41.77726845935353],[-87.56510744141426,41.77391087168384],[-87.56401702158016,41.77320608813253],[-87.56315211662292,41.773068789879886],[-87.56272308984724,41.772836065652704],[-87.5624093634145,41.77223652529238],[-87.56245205087299,41.77120729768064],[-87.56165940627358,41.7699810697106],[-87.56045728670458,41.769617762463085],[-87.56005693993214,41.770117010241435],[-87.55960441123064,41.77031639188319],[-87.55911167818532,41.770274565924645],[-87.55869923140187,41.770001760287634],[-87.55844936404185,41.76946652984442],[-87.55834214003964,41.76656461269611],[-87.55850228156893,41.76608389760094],[-87.55899832626376,41.76562293258503],[-87.55853642721748,41.76513531923974],[-87.55782377392447,41.76475798639128],[-87.5568727860712,41.76361071991113],[-87.55595263897338,41.76299986595544],[-87.55511540300088,41.762795208273275],[-87.55456502760607,41.76296898574299],[-87.55408753240407,41.7628716494765],[-87.5533616013148,41.76197432073774],[-87.54973332712046,41.7603667438051],[-87.54724747309393,41.75996692112951],[-87.54387807053268,41.76111364461284],[-87.54320140106995,41.761033733181634],[-87.5417389878518,41.75968873762824],[-87.54151441080252,41.759202177196244],[-87.53974723650605,41.75784955387539],[-87.53949186175022,41.75724099208399],[-87.53957665961208,41.75677280307493],[-87.53986823008907,41.756396800039674],[-87.54301934252348,41.75434960700776],[-87.54311822373808,41.7540238806538],[-87.54249231017954,41.75305755796694],[-87.53996419818023,41.752788288745535],[-87.53018744254055,41.74875136271415],[-87.52988995367613,41.74817074187937],[-87.52906692130708,41.742381134869454],[-87.52859850905398,41.741885538303514],[-87.52843480210855,41.74142788338385],[-87.52854819642619,41.74085838314576],[-87.5289790119556,41.74043841561655],[-87.52788251402951,41.73387086422716],[-87.52796090253457,41.73340596973587],[-87.52826301076709,41.733014122010765],[-87.52443237579547,41.732204683106],[-87.52396381186945,41.731892616330796],[-87.52375461526954,41.73147050992626],[-87.52343195056234,41.72184757148097],[-87.5238749562991,41.72068402155493],[-87.52453311455567,41.719867642311804],[-87.52457762728739,41.71940470990186],[-87.52390796099499,41.719048466678345],[-87.52360697099179,41.7186795795739],[-87.52348963175524,41.717168369146115],[-87.52366313772865,41.71680583899457],[-87.52405566582263,41.71649538867654],[-87.52689331117749,41.715858059240155],[-87.52729466022936,41.7155037150322],[-87.52682365366881,41.71422782384288],[-87.52629328960643,41.713730350575055],[-87.5251626052066,41.714309744469666],[-87.52461100782925,41.714158626704325],[-87.52427721016237,41.71381556275188],[-87.52414124901848,41.71326003524306],[-87.52433197557104,41.71272085101865],[-87.52609069961288,41.71132920522198],[-87.52534904048167,41.71128237126149],[-87.5235079992752,41.71012039907845],[-87.52326198537673,41.70960436030647],[-87.52338878155078,41.708942687159855],[-87.52317108918284,41.708366660254676],[-87.52347072902468,41.70264969453857],[-87.52367004837748,41.69179958700995],[-87.52400001455439,41.644634421663326],[-87.52456999866344,41.52265703190533],[-87.52455002158727,41.49463342929995],[-87.52573999740221,41.29805828298991],[-87.52561999876006,41.12146150899128],[-87.52521000680812,41.01035369001178],[-87.52532395441744,41.00988640187055],[-87.52564288181838,41.00952636357045],[-87.52618988880107,41.009350202250616],[-87.61467988880106,41.00757020225061],[-87.6554379568383,41.00725014223988],[-87.67475076483372,41.00655018501293],[-87.77072218305835,41.00470381722333],[-87.7714273003293,41.004400080644075],[-87.81315492090937,41.003870110864355],[-87.88301728561011,41.002650244184316],[-87.94340293299514,41.00096064577238],[-87.96330384131642,41.00004106588009],[-87.98228363785711,40.99954034754168],[-88.07433925487277,40.99763021520331],[-88.13191849314616,40.99678020853226],[-88.20869174871255,40.99461039914728],[-88.22822271439382,40.99464994201808],[-88.2473529038045,40.99357092079215],[-88.2479839587237,40.9938312309977],[-88.24830938458294,40.99453492215237],[-88.25247197188172,41.113129016478915],[-88.4849059000398,41.10766029044622],[-88.58624634822807,41.10729000666774],[-88.58671713011813,41.10740581141562],[-88.58707811478939,41.10772944144319],[-88.58724997241731,41.10828257271135],[-88.58787992062793,41.19309560005303],[-88.58947952986885,41.267927319854635],[-88.59098903237974,41.30221601927424],[-88.59066014302358,41.30300223199065],[-88.58933872652459,41.30381432651513],[-88.58997316168349,41.30358684905085],[-88.59044582644833,41.30364544794759],[-88.59089807862087,41.30399092535066],[-88.59108860490497,41.304527196176515],[-88.59470860490497,41.37298719617652],[-88.59615948561756,41.418197929760005],[-88.59696963705427,41.45711215765477],[-88.6008665626638,41.5669948427214],[-88.6010152721177,41.567772874247865],[-88.6009343026873,41.56827282511111],[-88.6016399894814,41.570305413378755],[-88.60122152915736,41.57529420446529],[-88.60321425894286,41.63039367385448],[-88.70045070109411,41.62961004323576],[-88.70274220687159,41.62979278341635],[-88.70619929039997,41.62920077216589],[-88.70721646614668,41.62953120699223],[-88.82019101729239,41.6303399041951],[-88.9389570839032,41.62735632672101],[-88.93950957954067,41.627747034576515],[-88.93968983027696,41.62830157671997],[-88.94131218652161,41.71634675058592]],[[-87.54201436906847,41.7254217207738],[-87.54211723103569,41.72510318423145],[-87.54144308989898,41.72510873271817],[-87.54201436906847,41.7254217207738]],[[-87.57423931569,41.77781256340249],[-87.57395519260831,41.776575049535566],[-87.57341877983694,41.776618267626155],[-87.57384329241494,41.77703254497593],[-87.57423931569,41.77781256340249]],[[-87.61055650970063,41.85576054457533],[-87.61041932411273,41.85652976376469],[-87.61090434175075,41.857191033956504],[-87.61092292546871,41.85823882444105],[-87.61119863239243,41.85850604807481],[-87.61140331862373,41.85801264077537],[-87.61203310376322,41.85751241589515],[-87.61206051557201,41.857094385811195],[-87.61174405728767,41.85660387547046],[-87.61055650970063,41.85576054457533]],[[-87.6114339389749,41.86114876250803],[-87.610770298078,41.86265522734403],[-87.61071643045713,41.86322383000867],[-87.61126936276837,41.86477975581471],[-87.61199175866373,41.864789789091034],[-87.61244700798835,41.86335727121626],[-87.61235999739108,41.86276684216337],[-87.61177872664597,41.861428389789744],[-87.6114339389749,41.86114876250803]],[[-87.63547055450687,41.94206174669005],[-87.63617583271338,41.94201384610167],[-87.63662300983317,41.942209924722306],[-87.63776573634182,41.94375949966388],[-87.63817646529263,41.9448622014184],[-87.63921080967552,41.94514365567225],[-87.6392468890591,41.94499933813795],[-87.6380435543468,41.94367283269537],[-87.63740666076778,41.94164725891913],[-87.63625203304717,41.94068506915196],[-87.63600242175413,41.9407816928783],[-87.63547055450687,41.94206174669005]],[[-87.8209800309708,42.357744464608835],[-87.82095340633444,42.35971468770005],[-87.82314583476725,42.359046325734205],[-87.82316974987368,42.35797014594423],[-87.8209800309708,42.357744464608835]],[[-87.82233336245682,42.36150675991011],[-87.82262949596586,42.36174785975817],[-87.82276866318163,42.36135764305282],[-87.82233336245682,42.36150675991011]],[[-87.80093257930325,42.48515898421299],[-87.80158998825117,42.48646884982594],[-87.80350919170876,42.48603104744569],[-87.80320549538305,42.48511436744761],[-87.80321543721608,42.48462614656364],[-87.80360455448704,42.48407215988017],[-87.80463631402145,42.483687723210046],[-87.80436006933884,42.48299143524294],[-87.8005336591406,42.48377508979317],[-87.80093257930325,42.48515898421299]],[[-88.12526922544149,42.48789815533164],[-88.12778436017534,42.489566962376124],[-88.1281485071821,42.49023724238308],[-88.12902111304794,42.490259848752665],[-88.13129053833003,42.48817959653533],[-88.1321508960593,42.48801463310278],[-88.13265334106947,42.48833400432535],[-88.13373002080752,42.4902588744013],[-88.13450322541507,42.49098101832722],[-88.13678491195051,42.491676551025755],[-88.13772724460668,42.491591910368015],[-88.13865632199563,42.490630443601155],[-88.13947317589341,42.490279904084986],[-88.13953633412768,42.48976185472378],[-88.13981056032931,42.48936824251202],[-88.14110775217222,42.488598928252834],[-88.14153481084182,42.48850952390943],[-88.14174008160204,42.48772751958928],[-88.1422971903378,42.487331700199746],[-88.14142195789611,42.485999762136046],[-88.14131096548894,42.48549606771427],[-88.14169961795716,42.48288842456469],[-88.14251756698513,42.48141513817532],[-88.14261439123615,42.47958469388916],[-88.14296872294321,42.47910353149961],[-88.14429049460665,42.47860365698595],[-88.14656066836764,42.476928251996284],[-88.14761247058314,42.474814540773686],[-88.14750318336445,42.473848035007194],[-88.14710268067581,42.47361765735444],[-88.14614874983924,42.47448606335739],[-88.14512740429724,42.47646344542978],[-88.14338208190102,42.478332895356196],[-88.14162492930907,42.47899458099556],[-88.13914314253144,42.47920771639068],[-88.13868326303333,42.47988217122572],[-88.13793349209963,42.48031915556618],[-88.13735792681109,42.48035203775074],[-88.13701752469572,42.48104280650682],[-88.13440376687004,42.48354729528475],[-88.13342383213583,42.48609840173166],[-88.13292436486766,42.48656895394398],[-88.13243520252117,42.4866454965786],[-88.13196927869365,42.48647800459938],[-88.13012893979774,42.48494313113198],[-88.12988506838614,42.48453682589654],[-88.12987696417674,42.48397062664738],[-88.1303757835397,42.483097581873814],[-88.13089981990743,42.480914097008295],[-88.12962820053755,42.480927274411094],[-88.12717350684635,42.482316723670266],[-88.1270792229064,42.48391373753739],[-88.12510742520999,42.48682102807621],[-88.12526922544149,42.48789815533164]],[[-88.1298624639856,42.47433900952894],[-88.1302375808512,42.474008194576264],[-88.13073789556684,42.473901849304575],[-88.13076083681308,42.471849098583],[-88.13088824451692,42.471400058801756],[-88.13128633933158,42.47100929257344],[-88.13242230541583,42.47052524271602],[-88.13243869116558,42.46979116837626],[-88.13286001325615,42.46901221688351],[-88.1332105794353,42.46869241472087],[-88.13493813355892,42.468145201915874],[-88.13636529528364,42.46834484447749],[-88.13681212442793,42.468820086560385],[-88.13698054986678,42.46974284694153],[-88.1369292689421,42.470223181955284],[-88.1366012091754,42.47067037772339],[-88.13765998044435,42.47171150280453],[-88.13922038421683,42.47153038450951],[-88.13950820229599,42.471365102840295],[-88.13948196496965,42.47046734157527],[-88.13962671456233,42.470008555888064],[-88.1419914010821,42.46783251619749],[-88.1424808181132,42.46633649414389],[-88.14438639985498,42.465377285333076],[-88.14588842389179,42.465239270792935],[-88.14578517784166,42.464784988172354],[-88.14396653312915,42.46409764351794],[-88.14356950016371,42.4638066439444],[-88.1426564360163,42.46482806235353],[-88.1414935411031,42.465283533299846],[-88.14075917059984,42.46507394569703],[-88.14042868016891,42.464598205416834],[-88.14024009749916,42.46366396383979],[-88.14065332131644,42.46137667955216],[-88.14054383264406,42.460993469198804],[-88.14011471259339,42.46052858914392],[-88.13754813423147,42.45927603654509],[-88.13676877030362,42.45817783973575],[-88.13619140190958,42.457759506947255],[-88.1336736456446,42.458930390066016],[-88.13156199947754,42.46120579654807],[-88.13133675871731,42.462451659503095],[-88.13220999179849,42.465504050053305],[-88.13191160212517,42.466598135959266],[-88.13145644857057,42.46709454832033],[-88.13078971861329,42.4671897384172],[-88.12776362211824,42.4662392406461],[-88.12735486047552,42.465825325716246],[-88.12724350960981,42.46512125449926],[-88.12628477693265,42.464441910901655],[-88.12542264456182,42.4643958427597],[-88.12380301989211,42.46475350987427],[-88.12375671439277,42.46500433132902],[-88.1243684905951,42.46592755723436],[-88.12500480002763,42.46610143400385],[-88.12537629901882,42.466539505170964],[-88.12549478881205,42.46839799464597],[-88.12709053109984,42.47187902410025],[-88.12698005443049,42.473475777491565],[-88.12665334326587,42.473859315262565],[-88.12607816894646,42.474088960135724],[-88.1298624639856,42.47433900952894]],[[-88.13506886051692,42.454135221411406],[-88.1350387179706,42.45395867221152],[-88.13340982165947,42.45354504718048],[-88.13229646168618,42.45248938534093],[-88.13028562999165,42.45282223590996],[-88.12745513799142,42.45155285407212],[-88.12703451677318,42.45173785059024],[-88.1273516631327,42.455192488391354],[-88.12803510494548,42.45679302733754],[-88.12819683619342,42.45614697371544],[-88.1293159844004,42.45477981549191],[-88.13055313188302,42.454215845223175],[-88.13307015735641,42.45389000001238],[-88.13506886051692,42.454135221411406]],[[-88.12105888266738,42.43492785918266],[-88.12203090735565,42.43530487908198],[-88.12278440882967,42.434707837179566],[-88.12405591822952,42.434629162783416],[-88.12435993009152,42.43440842417831],[-88.12456456369867,42.43364105750141],[-88.12521561809434,42.43326907038422],[-88.12795265625284,42.43389126757848],[-88.13020008076332,42.433377096657274],[-88.13052497915915,42.43281438918878],[-88.13159356348496,42.43206192696936],[-88.13427031582007,42.431369109452795],[-88.13468340578235,42.43067667882172],[-88.13355961912305,42.42958965159331],[-88.13336392490204,42.42829161661068],[-88.13243621597935,42.42761129673405],[-88.12938009226909,42.4281595479262],[-88.12915964379003,42.4283074553416],[-88.12922157042013,42.42920681618717],[-88.12836387217787,42.43082784606133],[-88.12601350287969,42.432510502810814],[-88.12294899149843,42.43323584111135],[-88.12197703312273,42.4337429498291],[-88.12105888266738,42.43492785918266]],[[-88.13732208764067,42.4251821950849],[-88.13849546451374,42.42425444549462],[-88.1395311591885,42.42388311278149],[-88.14400775030037,42.42456803108045],[-88.14577395113763,42.4226123237156],[-88.14558296246804,42.42165693273094],[-88.14628245095074,42.420331177707155],[-88.14897499406958,42.41834778969514],[-88.14911378260548,42.417237481407795],[-88.14861006630765,42.41588151568097],[-88.14897646695206,42.415096284369305],[-88.15046675685191,42.414710140405894],[-88.15505977927859,42.41526857048631],[-88.15643005784938,42.414705998846806],[-88.15694858959937,42.414668880600836],[-88.15737525628587,42.414397565609235],[-88.15861040441236,42.41412926029707],[-88.15869319742086,42.41336914946479],[-88.15920806260151,42.41291779759731],[-88.16133973782088,42.41307088606297],[-88.16279146861018,42.41239135250201],[-88.16225860264393,42.41133400407293],[-88.1622135427835,42.41075428884046],[-88.16256595111875,42.4096634812966],[-88.1630262722031,42.40911976271701],[-88.16346561165197,42.40887289785008],[-88.16728729845345,42.409036386209735],[-88.17046955328345,42.41031184979892],[-88.17092207781673,42.410789982858596],[-88.1709513485768,42.41153743570789],[-88.16991410682886,42.41288307465084],[-88.16992834450473,42.4134296175478],[-88.16963758595159,42.413915443592806],[-88.16912961537597,42.41416551033694],[-88.16698947091372,42.414330406732546],[-88.16680523858349,42.41479620168068],[-88.16708314562885,42.41793682537422],[-88.16785008956968,42.41727822722555],[-88.1700895727059,42.416354147981416],[-88.17183359931828,42.415381532443774],[-88.17496155342458,42.41506566260588],[-88.17570179816076,42.41479134242579],[-88.17816357182906,42.415401226356025],[-88.1793367872224,42.415133650915436],[-88.18014298923067,42.414417766778726],[-88.18069631901344,42.4142209544698],[-88.18291021819186,42.41455181052657],[-88.18356695341055,42.41484680541517],[-88.18552547423823,42.41446148763588],[-88.18720545932801,42.41456689361032],[-88.18740266483901,42.41420591606972],[-88.1871282229372,42.4136667905193],[-88.1870925830384,42.4132018616303],[-88.18751575135325,42.412212993694595],[-88.18983057661026,42.40951525047737],[-88.18876586773133,42.40910163687388],[-88.18834464627254,42.40857514675923],[-88.18783809576999,42.40846206645879],[-88.18752100621894,42.40820925625902],[-88.18650847764737,42.406702142289795],[-88.18639002365732,42.4062231214751],[-88.18669662597664,42.405509422132084],[-88.18743243990514,42.405231384805234],[-88.18623877426423,42.4046337423696],[-88.18466124274269,42.40330026659708],[-88.18130198465205,42.405173698993785],[-88.18031269002525,42.406177870231524],[-88.18010685892203,42.406886837500075],[-88.17938450291632,42.407500742180524],[-88.17921332692097,42.40880713456983],[-88.17823824989377,42.410106314566406],[-88.17516613927816,42.41167252336824],[-88.17458726054885,42.411609649783074],[-88.17404641539737,42.41104665578119],[-88.17312606947733,42.410821761003696],[-88.172786916624,42.410475061467636],[-88.17265078275305,42.410009558733584],[-88.17335809793366,42.40827626311298],[-88.17309168289715,42.404982887358514],[-88.17351350135226,42.40400706129527],[-88.174369787752,42.40333936953675],[-88.17444292929618,42.40310623086468],[-88.17317029033609,42.401110993524824],[-88.17318055685978,42.40051606095578],[-88.17356727001608,42.39980116893635],[-88.17271736427186,42.399879468337836],[-88.17185236598253,42.39928018050118],[-88.17001687744227,42.39852099662052],[-88.16966276651218,42.39820185830653],[-88.1695261679954,42.39737348946194],[-88.17017499791282,42.396633276943945],[-88.16983572926846,42.39617526427404],[-88.16814866846563,42.39598619711511],[-88.16687674058932,42.396471835816314],[-88.1655285894724,42.399027154926806],[-88.16504741521929,42.40184604892091],[-88.16468441845042,42.40216078834293],[-88.16261209170572,42.40295677569839],[-88.16113031323502,42.402753073111334],[-88.15865118839454,42.401465539430546],[-88.15832237486286,42.400999384720116],[-88.1581221883981,42.39963508658429],[-88.15763284121648,42.39945663194807],[-88.15714646856216,42.39889876482165],[-88.15694784126575,42.39887416218392],[-88.15648890992412,42.39952482892478],[-88.1554893263902,42.400013256307545],[-88.15510161361881,42.40068229602422],[-88.15459336928603,42.40096697162077],[-88.15401271755324,42.40092010945824],[-88.15350640279453,42.40047636307041],[-88.1528472611348,42.40076888256824],[-88.14840113273645,42.40055566497238],[-88.14670926606703,42.40095127558663],[-88.14569201280213,42.40164485735816],[-88.1447162292447,42.40302243414512],[-88.14437000000001,42.404440325337646],[-88.14432740037391,42.40672876378588],[-88.14400807087597,42.40720997763425],[-88.14347592043286,42.40743437460844],[-88.14180787528325,42.40742864058294],[-88.14023635540427,42.40718986458383],[-88.13930217654999,42.40682315036877],[-88.13893519183544,42.406355153059216],[-88.13856787584373,42.4049782342734],[-88.13862576735099,42.40440817018121],[-88.1403119962015,42.40284554143552],[-88.14040942461305,42.40206665696486],[-88.14091680401292,42.401565800838036],[-88.14129569917588,42.40073774495882],[-88.14107403867949,42.40049871929422],[-88.13969064234807,42.400216194691325],[-88.13918303920735,42.401078584670906],[-88.13846799482143,42.401328646815145],[-88.1374411692585,42.40091237864838],[-88.13676773611586,42.40038512470498],[-88.13590277056939,42.400389999999994],[-88.135653041894,42.400662899377224],[-88.13591792084891,42.40228220395037],[-88.13663045324503,42.403253589357675],[-88.13679996575122,42.40479522325519],[-88.13806997075727,42.407467647522616],[-88.13783779070572,42.40810070073529],[-88.1366790569073,42.40924720373713],[-88.1359404214704,42.410820818363554],[-88.13606892008607,42.41358353860065],[-88.13596781502591,42.414070372773054],[-88.13564474338617,42.414448333697244],[-88.13472324524729,42.41487222734552],[-88.13426561826199,42.41536989669202],[-88.1340420389886,42.41655235800492],[-88.13349726296387,42.41711196930362],[-88.13186206131259,42.417265962462665],[-88.13075190131701,42.41675878918086],[-88.13038823635955,42.416252968644145],[-88.12945890936756,42.41634363469214],[-88.12817251527929,42.417107431182046],[-88.12735319359271,42.41798137431441],[-88.12708925756806,42.418667607978506],[-88.12708331483333,42.42015329166028],[-88.12814051376542,42.42178045871227],[-88.12964362075365,42.42316995877698],[-88.13281851146299,42.424543888089794],[-88.13440909508219,42.42489262567476],[-88.1365189689672,42.42459970326358],[-88.13697415334462,42.42478564820938],[-88.13732208764067,42.4251821950849]],[[-88.153756413573,42.376420829143726],[-88.1543693502146,42.37762444536115],[-88.15431641128987,42.379290079324186],[-88.15462466468291,42.3811000285693],[-88.15847740507023,42.381270016766685],[-88.15903788390536,42.38056881988387],[-88.15641676401826,42.37990218783576],[-88.15545492930221,42.37857637807313],[-88.15558039323163,42.37660907568749],[-88.15618869230772,42.37546105282616],[-88.1558300759027,42.3740212878901],[-88.15558328489773,42.373978486498096],[-88.15510123254373,42.37510655350403],[-88.153756413573,42.376420829143726]],[[-88.14943912340617,42.367324172615234],[-88.15074863676892,42.36740353706146],[-88.15122694611362,42.36712533672833],[-88.15175053095538,42.366170885193874],[-88.15144190388473,42.365573837794486],[-88.15144320041766,42.36407013353612],[-88.15173262590513,42.363657827590835],[-88.15253985953422,42.363096566080294],[-88.15060529457217,42.36247193353747],[-88.14870971108877,42.363720830711266],[-88.14823972647052,42.36375707263955],[-88.14728802124489,42.3633463518895],[-88.14697062316664,42.363382834427235],[-88.14605290017671,42.36406395695881],[-88.14569933140668,42.364615108276816],[-88.14617451788062,42.36543897787513],[-88.14943912340617,42.367324172615234]],[[-88.18750288234045,42.3994438552232],[-88.18999009958085,42.40119498575222],[-88.1919616695419,42.40158496418578],[-88.1948977036162,42.39954198795041],[-88.19448318487599,42.39788606405739],[-88.19422297558286,42.39746000735338],[-88.19419747752096,42.39698385602835],[-88.19460450659382,42.396352193580704],[-88.19504721325022,42.39606470614871],[-88.19553196818114,42.39598336505315],[-88.19856157733629,42.39684159799486],[-88.19911403097012,42.39738793575766],[-88.20115078424838,42.398315942473275],[-88.20150668534501,42.39877982780745],[-88.20151858114484,42.39944462594521],[-88.20186823938337,42.39988801660363],[-88.20192795970368,42.400550763922595],[-88.20591650482744,42.40174919787981],[-88.20676971714141,42.4013752549887],[-88.20708290835647,42.39950557171342],[-88.20765787686493,42.39846568990133],[-88.2075218050573,42.39789994289076],[-88.20771703990407,42.39736396721202],[-88.20979827936922,42.39544071754065],[-88.2101431045902,42.394512913608935],[-88.21105457603396,42.39381327175451],[-88.21169032985817,42.39285734132932],[-88.21328857140078,42.39187057800181],[-88.2119883055525,42.39177577375528],[-88.21142200211337,42.3911109583461],[-88.21151703835733,42.389800278844056],[-88.21243232151483,42.38898264014613],[-88.20948046986696,42.38703780095747],[-88.20732107472632,42.387368694834436],[-88.20608856886854,42.3870862137362],[-88.20497173956808,42.38613546369851],[-88.20470683846247,42.38571246170564],[-88.20467937302388,42.38521411550929],[-88.20489618498318,42.384764564782415],[-88.20679707087491,42.383292140168095],[-88.20735725623395,42.38323768889712],[-88.20825111595805,42.38357379834099],[-88.20937953182974,42.38359621719937],[-88.20976243355129,42.383445213703546],[-88.2089107155737,42.38055244183374],[-88.20891027848286,42.37999351293227],[-88.2079147856624,42.38062822076713],[-88.20833872778502,42.38179042629716],[-88.20813952763255,42.3823406293073],[-88.20775836226136,42.38264828025316],[-88.20717851143189,42.3827268745829],[-88.20432706268228,42.382254812918106],[-88.2038828932188,42.381997106781185],[-88.20325887670934,42.38126927096402],[-88.20321754406848,42.380608562014665],[-88.20360625445063,42.37984763457117],[-88.20258052009002,42.37908853655111],[-88.2024138045625,42.378617147290775],[-88.20245983513105,42.37821825215027],[-88.20337710626625,42.37706855504035],[-88.20503743317606,42.37691317505811],[-88.20474640104251,42.37613296509052],[-88.20485255327681,42.3755590896904],[-88.2052609709936,42.37514220092787],[-88.2059302176021,42.375038258046196],[-88.2064458420929,42.37531163078843],[-88.20781221231991,42.376964635433],[-88.2080225536087,42.37741402041495],[-88.20797221453721,42.37801925404725],[-88.20892504879387,42.378621985788776],[-88.2091883139212,42.37934911248243],[-88.21033841324312,42.37679889224689],[-88.21069659596336,42.376377087056035],[-88.21599393543342,42.374121303905255],[-88.21840260535657,42.37259566335587],[-88.21968381339497,42.37234654176998],[-88.2197915736451,42.37068224457355],[-88.21844943233748,42.36848471586722],[-88.21842644585071,42.36747878737329],[-88.21752938853797,42.36748],[-88.21716526776439,42.36773901374616],[-88.21680205991464,42.36955938400063],[-88.21530219687817,42.3718710930418],[-88.21402298518575,42.372696528931606],[-88.21039930497454,42.37371879119362],[-88.20881738698372,42.37376962490622],[-88.20834703173135,42.37366653729035],[-88.20668672715996,42.37264002071623],[-88.2036071575818,42.37285410844092],[-88.20409954353478,42.37312575576381],[-88.20438548640941,42.37362994031477],[-88.204374255792,42.37411497314507],[-88.20406528373942,42.37460538283065],[-88.19923384134317,42.376813040495705],[-88.19824078309607,42.378106830424194],[-88.19619081042552,42.3790329987397],[-88.19483586848364,42.37882771136397],[-88.19444547661621,42.37839642402392],[-88.19435131825587,42.37791866995108],[-88.19454887186627,42.377371507131755],[-88.19527815552344,42.3769579796905],[-88.19652294733348,42.375191178411725],[-88.19616856064563,42.374697836247],[-88.19615995024596,42.37411017064173],[-88.19640959887265,42.37368620298504],[-88.19698539032477,42.373275924647956],[-88.19625080557654,42.3729173388641],[-88.19585439343767,42.373026771118596],[-88.19540066290135,42.37346336942123],[-88.19531306926926,42.37474051290032],[-88.19475031415506,42.3757610814388],[-88.19314701223985,42.376621959538],[-88.19329874510811,42.37745008202293],[-88.19302976948948,42.37808369327349],[-88.19251399518522,42.37837683471514],[-88.191433745963,42.37850544096728],[-88.19116653172023,42.3790471329271],[-88.19021406874478,42.37967578427134],[-88.18924503116762,42.379610775889454],[-88.18890030889828,42.38003143031386],[-88.18845041552606,42.380202723577376],[-88.18712749625001,42.37991657194304],[-88.18679316578456,42.38050420396528],[-88.18639710374833,42.38079617102254],[-88.18436471153703,42.38100716179597],[-88.18235428881319,42.38064517681938],[-88.18169430790765,42.379811225178365],[-88.17951273556577,42.378525074320095],[-88.1792796222037,42.37854143315252],[-88.17893505264126,42.37916635100648],[-88.17903979738331,42.37963012938924],[-88.17874424538448,42.38208769913096],[-88.1817828341539,42.38179249036665],[-88.18326984051969,42.3827924802409],[-88.18357872402981,42.383161485327214],[-88.1838406348393,42.3850005577035],[-88.18325934156383,42.386108741953414],[-88.18274414003652,42.386586147042436],[-88.18372258212581,42.386153921382274],[-88.18511951753712,42.386138048563964],[-88.18624482648272,42.3858615232186],[-88.18928030595174,42.38653798384197],[-88.19055386970639,42.386417836317946],[-88.1930956850111,42.38541556359119],[-88.1939531764137,42.38535109682563],[-88.1946535367728,42.385593105234136],[-88.19539088741188,42.386481280531726],[-88.19560619478742,42.38753689568237],[-88.19502840936225,42.38843788281471],[-88.19438760278545,42.38865992315158],[-88.19274680465556,42.38848155390514],[-88.19117039860839,42.38943527956367],[-88.18816863392887,42.39286586776883],[-88.18797847650508,42.3939864383018],[-88.18816371096337,42.39569788091403],[-88.18875845543366,42.39755555850056],[-88.18860467325212,42.39803528225933],[-88.18750288234045,42.3994438552232]],[[-88.17856528678035,42.37378832590491],[-88.18144079956896,42.37233806151063],[-88.18209678505599,42.37243562920022],[-88.18260463932172,42.37297252193716],[-88.18265080941863,42.3718170571377],[-88.18301224391573,42.37106590899093],[-88.1817429938537,42.37178746788577],[-88.1812648837402,42.37179433190935],[-88.18073486662571,42.371577879783935],[-88.18001615579412,42.37206234412227],[-88.17975391642176,42.37276363520151],[-88.17938546766148,42.37321874211008],[-88.17856528678035,42.37378832590491]],[[-88.18078194747817,42.36689472533163],[-88.18304684587235,42.366313399406735],[-88.18498260799639,42.36632510188651],[-88.18529116855058,42.36608460616045],[-88.18451480658892,42.36505567786208],[-88.18441948183043,42.364472618211686],[-88.18466989284848,42.36393751103781],[-88.18579375581827,42.36291838720168],[-88.18560446785403,42.36275395523274],[-88.18326627858576,42.364215323525414],[-88.18239865331124,42.366175368548504],[-88.18170855977391,42.366479592086456],[-88.18115250304852,42.36647412135035],[-88.18071979404577,42.366280660196665],[-88.18049033717475,42.3665703024765],[-88.18078194747817,42.36689472533163]],[[-88.20019937333781,42.3693356397812],[-88.20096327143668,42.36923265247661],[-88.20106941036707,42.36888834814142],[-88.2009150810391,42.368564850127],[-88.20068981898999,42.36897013468023],[-88.20019937333781,42.3693356397812]],[[-88.21954321739598,42.386981069835215],[-88.22042895259244,42.38669862389732],[-88.22156130078541,42.386657179818584],[-88.22162171667942,42.38565696112876],[-88.21954321739598,42.386981069835215]],[[-88.2425375595162,42.37233600665584],[-88.2445652596112,42.37138468480509],[-88.24464984721452,42.37135009147461],[-88.2427133100579,42.37021095197072],[-88.24297522674347,42.3711575895951],[-88.2425375595162,42.37233600665584]],[[-88.24842914194609,42.359373274844],[-88.24856330141274,42.359051798386176],[-88.2485228625238,42.3591058587956],[-88.24842914194609,42.359373274844]],[[-88.25219463511925,42.33718857065263],[-88.25184607427714,42.33636185583482],[-88.2517063182267,42.33676641282294],[-88.25219463511925,42.33718857065263]],[[-88.25219114115336,42.322348549944266],[-88.25226472073322,42.32225427610758],[-88.25230522387538,42.32169827842876],[-88.25219114115336,42.322348549944266]],[[-88.25249827817571,42.320597868916956],[-88.25337229980619,42.3198020549281],[-88.25406,42.31742807617687],[-88.25406,42.31668340713972],[-88.2536603459433,42.31600574379231],[-88.25354310311116,42.31687420921554],[-88.25369083241861,42.31767975907693],[-88.25259187792682,42.3200643503356],[-88.25249827817571,42.320597868916956]],[[-88.25376729416546,42.31454088431245],[-88.25385282519112,42.31415967708857],[-88.2534412568586,42.313461338563066],[-88.25376729416546,42.31454088431245]],[[-88.25285919741458,42.312473715119346],[-88.25255273568523,42.31195371876568],[-88.25171377733851,42.31130334369052],[-88.25122966147394,42.30987643053799],[-88.25118284842415,42.31026827310296],[-88.25162263546387,42.311399199402345],[-88.25165022898112,42.312029390777866],[-88.25285919741458,42.312473715119346]],[[-88.22204874022253,42.28730905516691],[-88.22119764246452,42.28667073184839],[-88.21944278213593,42.28644442505669],[-88.21852671876582,42.285599786108605],[-88.21760381074472,42.28560883422646],[-88.21593826223648,42.28601086317672],[-88.21393045834094,42.28787115494931],[-88.21357647752224,42.29000226395988],[-88.21433002830247,42.290755814740095],[-88.21590339144214,42.29147693951245],[-88.21628534177954,42.29148912941683],[-88.2169831692903,42.29104625658375],[-88.21937566203228,42.290839832965744],[-88.22222495182851,42.29011077186906],[-88.22204874022253,42.28730905516691]],[[-88.18789224945985,42.23798132032461],[-88.18767707636495,42.238056606621925],[-88.18789485764282,42.23811975030604],[-88.18789224945985,42.23798132032461]],[[-88.18091646237212,42.23219536990011],[-88.18016505732355,42.231492183357325],[-88.17974903507348,42.23127322427835],[-88.17963495490514,42.23201552298083],[-88.18091646237212,42.23219536990011]],[[-88.17639257588121,42.225611790005885],[-88.17675997288825,42.2259704372038],[-88.17614814865766,42.22329740060721],[-88.17620677423135,42.222810709498134],[-88.17784356125058,42.221251261423475],[-88.17764500859067,42.22120461511669],[-88.17699835426338,42.2216311782767],[-88.17654927320909,42.221636250812075],[-88.17603347097969,42.22295912092854],[-88.17565644078785,42.223365348985716],[-88.17601898887965,42.22403655630416],[-88.17605621713521,42.22469582265603],[-88.17639257588121,42.225611790005885]],[[-88.18044111528177,42.2196989582172],[-88.18014209512307,42.220848212171575],[-88.18046831974317,42.221309460892755],[-88.18225167375581,42.22080742425895],[-88.18160310204398,42.22051731554471],[-88.18128253185303,42.21975183132991],[-88.18070172749387,42.21960469422558],[-88.18044111528177,42.2196989582172]],[[-88.28547567721273,42.16942423704895],[-88.28667763918578,42.1690149001541],[-88.28702067973062,42.168685691889294],[-88.28547567721273,42.16942423704895]],[[-88.28821981249263,42.121523860271104],[-88.28827697872265,42.12164865961848],[-88.28850646861953,42.12123415461094],[-88.28821981249263,42.121523860271104]],[[-88.28924973944675,42.12048297664726],[-88.29031010970843,42.12003650495813],[-88.29061656729291,42.11943460442966],[-88.29100207511392,42.11912218108634],[-88.29094961097603,42.11876502137831],[-88.28924973944675,42.12048297664726]],[[-88.27746015009623,42.0806464970234],[-88.27702975299293,42.08006853519896],[-88.27712716641875,42.08057372575614],[-88.27746015009623,42.0806464970234]],[[-88.29079598796542,42.05152300470833],[-88.29175643558028,42.05017485346912],[-88.29217461686562,42.048888141821976],[-88.2921474240497,42.04808595375268],[-88.29036736204587,42.04422381684715],[-88.28994040763124,42.042640979927725],[-88.28999455359887,42.04391094898678],[-88.29116798326837,42.048486522475876],[-88.29079598796542,42.05152300470833]],[[-88.28435739624334,42.009240336654486],[-88.28671521243989,42.00767019799262],[-88.28554961766346,42.00828312041812],[-88.28435739624334,42.009240336654486]],[[-88.29091799735369,42.00488516794642],[-88.29194579290433,42.0039075087641],[-88.2919956577801,42.00348025985126],[-88.29091799735369,42.00488516794642]],[[-88.29252085324605,42.002752730377104],[-88.29284800980025,42.00233028228815],[-88.29297030843486,42.00176082927075],[-88.29252085324605,42.002752730377104]],[[-88.29440030715557,41.9973204659253],[-88.2944841234236,41.99713316222429],[-88.29444088958431,41.997092930734944],[-88.29440030715557,41.9973204659253]],[[-88.29400780499063,41.984418948127264],[-88.29383971492679,41.98416398198693],[-88.29374792946264,41.983860940745004],[-88.29363858140154,41.984368988659675],[-88.29400780499063,41.984418948127264]],[[-88.29294755289358,41.975930487020946],[-88.29292119367318,41.9757815574257],[-88.2928903977628,41.975844459710714],[-88.29294755289358,41.975930487020946]],[[-88.31347926262364,41.95587197319376],[-88.3135749823535,41.95263490596582],[-88.3134122803535,41.952168164874905],[-88.31301896144439,41.954637333582106],[-88.31347926262364,41.95587197319376]],[[-88.31190021282605,41.941819523550585],[-88.31387250095104,41.939107627378725],[-88.31236758611823,41.9405799682974],[-88.31190021282605,41.941819523550585]],[[-88.31481764558855,41.93780805350215],[-88.31565404686435,41.93665800174792],[-88.31658459863132,41.934254740088306],[-88.31707286794455,41.933664786622295],[-88.31718297580086,41.93238405839886],[-88.31642787343756,41.93362269122285],[-88.31580787744025,41.93620923567771],[-88.31548518957135,41.93660089651964],[-88.31498613756354,41.93681424588733],[-88.31475246938307,41.93740113341039],[-88.31481764558855,41.93780805350215]],[[-88.31768912899827,41.930158783397005],[-88.31773701424797,41.929994125345395],[-88.31770086358293,41.92991366096191],[-88.31768912899827,41.930158783397005]],[[-88.31955998872846,41.922839444881625],[-88.31942604596748,41.921680884502436],[-88.31806767216594,41.92110529604749],[-88.3184402634123,41.922250340768706],[-88.3190132425982,41.92233872265584],[-88.31955998872846,41.922839444881625]],[[-88.31633102166997,41.91811862093911],[-88.31640587292083,41.91795910964653],[-88.3162269612974,41.917914739563926],[-88.3162512984374,41.9180120881239],[-88.31633102166997,41.91811862093911]],[[-88.30194306012253,41.89646656571417],[-88.3015822650718,41.89480778846874],[-88.30149642039169,41.895030984637025],[-88.30168988445516,41.896025942677696],[-88.30194306012253,41.89646656571417]],[[-88.3015190364781,41.89341271009031],[-88.30150344982373,41.891497007553525],[-88.30200354796412,41.8886697048839],[-88.30183001484987,41.888961893119],[-88.30125266384026,41.89282570372173],[-88.3015190364781,41.89341271009031]],[[-88.30809864752582,41.87235732517194],[-88.30818646334467,41.87257154105521],[-88.30825896782704,41.87210348469501],[-88.30809864752582,41.87235732517194]],[[-88.3105207275992,41.86183193962103],[-88.31038271345784,41.86115885527015],[-88.31043633207858,41.861649082659696],[-88.3105207275992,41.86183193962103]],[[-88.30894006868503,41.85607993280258],[-88.30918197098615,41.85595213536048],[-88.30892367190093,41.85588799397691],[-88.30894006868503,41.85607993280258]],[[-88.30955853030734,41.83756774853666],[-88.31010810395384,41.8364551970084],[-88.3098562397381,41.83665099251179],[-88.30955853030734,41.83756774853666]],[[-88.3241469758576,41.80958339862853],[-88.32466867396013,41.80955358730839],[-88.32437059256439,41.80802190752106],[-88.32394646284895,41.808815917802306],[-88.3241469758576,41.80958339862853]],[[-88.32350989494249,41.80556363585825],[-88.32342749638337,41.80459750784229],[-88.32313676030742,41.80377731178783],[-88.32350989494249,41.80556363585825]],[[-88.31045631826136,41.764288569461506],[-88.3119171942529,41.76101193225078],[-88.3125759073627,41.760066177181734],[-88.311256712908,41.761546792054936],[-88.31045631826136,41.764288569461506]],[[-88.58385985357212,41.58176492985011],[-88.58409157764602,41.58186039471732],[-88.58412541799157,41.58161554986416],[-88.58385985357212,41.58176492985011]],[[-88.1770762514409,42.22651660758893],[-88.17687315836938,42.22775160732395],[-88.17828326650711,42.229098729245486],[-88.17878003271213,42.228467316167404],[-88.17924361826863,42.22835002036345],[-88.17965412076528,42.22843649403157],[-88.1798232328604,42.22811605698121],[-88.17870480791792,42.22786098371132],[-88.1770762514409,42.22651660758893]],[[-88.18324515376342,42.2300945206771],[-88.18362711369485,42.23037011202003],[-88.18363655575241,42.23008428794536],[-88.18324515376342,42.2300945206771]],[[-88.24991232522618,42.371974972827935],[-88.25005180000392,42.372150000000005],[-88.25051356314583,42.37222336532141],[-88.25017841027757,42.37191449895261],[-88.24991232522618,42.371974972827935]],[[-88.25264660865075,42.37279242596485],[-88.25204348098949,42.372947785157855],[-88.25102950716216,42.37269479435754],[-88.25118312569128,42.37319202576819],[-88.25151629087404,42.37332657324584],[-88.25194288573265,42.37312168324135],[-88.25316481313835,42.37294175801075],[-88.25264660865075,42.37279242596485]],[[-88.18887404703575,42.424518609693656],[-88.18649053726156,42.4253605488601],[-88.18663127825897,42.42690869983159],[-88.18734782350313,42.427084368988226],[-88.18846099178438,42.42692537534554],[-88.18941079054802,42.425633649026985],[-88.18887404703575,42.424518609693656]],[[-88.16674173163891,42.423459369765965],[-88.16630928548928,42.42186728027514],[-88.16551634904974,42.423618197288405],[-88.16471723545729,42.424118563675776],[-88.16454065633576,42.42520801789343],[-88.16497511678999,42.42488508935868],[-88.16624103439905,42.42465436717844],[-88.16674173163891,42.423459369765965]],[[-88.16558483116336,42.419872139043335],[-88.16561868119763,42.4195830847594],[-88.16538917047562,42.41958237443326],[-88.16546187913896,42.41968033388528],[-88.16558483116336,42.419872139043335]],[[-88.16473452498953,42.41922720488548],[-88.16194713394464,42.416373220880466],[-88.16071999165187,42.415600382330126],[-88.16171818748502,42.41724385887478],[-88.16190591997233,42.419020240837405],[-88.16148902318693,42.420474203477774],[-88.16083866869089,42.42158147664383],[-88.15928675499904,42.42234385208373],[-88.15983442709434,42.423660861441356],[-88.16029789110735,42.423622754400284],[-88.16079159228669,42.423245463937256],[-88.1624054143374,42.422850431932616],[-88.16276767022515,42.421938148268694],[-88.16396117912585,42.42138073236636],[-88.16362939672985,42.420356766813065],[-88.16376228640094,42.41970587221238],[-88.1641847106247,42.419319709402615],[-88.16473452498953,42.41922720488548]],[[-88.16458268086767,42.426482658357244],[-88.16383750451837,42.427073514079574],[-88.16323997472199,42.428111287805265],[-88.16263883258162,42.4285733839809],[-88.1609388138685,42.42918463581986],[-88.15956426680289,42.430819310259665],[-88.1583954931717,42.43097054515779],[-88.15792617574533,42.43129197500649],[-88.15437591311174,42.432433816231885],[-88.15327797170157,42.43316810020409],[-88.14981347728833,42.433961480214776],[-88.14888041715378,42.43461612724467],[-88.14787791301895,42.43606329047155],[-88.14763849273653,42.43779556663263],[-88.14791519700033,42.43813432934739],[-88.1497987665959,42.44275758067321],[-88.1516622250194,42.445838734403885],[-88.15194218685322,42.446943001431904],[-88.15245206968835,42.447507720969334],[-88.152497914477,42.44807900544416],[-88.15222993291033,42.4485736031588],[-88.15272839822715,42.448844187027774],[-88.15332058186165,42.4496920027211],[-88.15347307682647,42.45422393347629],[-88.15389964577722,42.45570338571631],[-88.15375365576477,42.456423871889854],[-88.15620170024123,42.456963067385516],[-88.1580751034198,42.459369231048036],[-88.15962104589381,42.460602510999195],[-88.16160751918218,42.461338138493616],[-88.16359294581038,42.45937662824847],[-88.16498791714872,42.45912427099827],[-88.16638964319495,42.45856918748396],[-88.16288414756734,42.458515395555125],[-88.1623574485992,42.458302578911905],[-88.16203164866559,42.45783722191998],[-88.1616279466809,42.45608581817059],[-88.16190885055669,42.455256959126885],[-88.16440382199087,42.453562721670615],[-88.16565638260533,42.45185472049288],[-88.16612372308684,42.45173013247773],[-88.16974579886912,42.451671168453366],[-88.17013603426422,42.45097298971775],[-88.1714459319943,42.45055908589525],[-88.17165202097884,42.45027805546177],[-88.17099890416335,42.45007004841495],[-88.16945254055632,42.450150507395904],[-88.1687762665288,42.449741238193724],[-88.16759673923383,42.447875901037094],[-88.16770707614822,42.447290483789445],[-88.16848093111943,42.44612447692253],[-88.1684247374363,42.44594809119488],[-88.16728896957565,42.4454411424237],[-88.16693991487742,42.445112454594245],[-88.16678545295615,42.44446571108598],[-88.16700588497625,42.44393695503318],[-88.16766957838031,42.44357611516467],[-88.16905504430069,42.44378543170126],[-88.17001104644557,42.442255436843325],[-88.1713423544028,42.44153581066924],[-88.17257673265327,42.441812692764955],[-88.17357957135383,42.44310406383131],[-88.1756220261815,42.44283072126556],[-88.17628361378992,42.443047710342434],[-88.1776132822235,42.44125175675487],[-88.17814046589959,42.43948898633793],[-88.17657135910183,42.43705860370048],[-88.17646669809213,42.43648473920866],[-88.17566395124396,42.43559461855389],[-88.17204842478432,42.43404923849931],[-88.17078364082478,42.43305415655471],[-88.1696293945435,42.42977040178171],[-88.16956874078701,42.42911141233446],[-88.1678678507348,42.428463081934986],[-88.16638886832425,42.42694380594026],[-88.16512205119463,42.42679813971106],[-88.16458268086767,42.426482658357244]],[[-88.12604901410997,42.44512592729383],[-88.12605060804665,42.44507492131985],[-88.12602750163195,42.445102855940604],[-88.12604901410997,42.44512592729383]],[[-87.81146360985674,42.382221678765596],[-87.81159916386866,42.38221394980877],[-87.81147611877454,42.3821983744804],[-87.81146360985674,42.382221678765596]],[[-87.6392691904096,41.96153134699029],[-87.63879456702531,41.96136383285466],[-87.63731599744663,41.96165475133871],[-87.6392691904096,41.96153134699029]],[[-88.58368194441877,41.30747407410831],[-88.58194340930427,41.30868256802937],[-88.58332420724668,41.30795105700444],[-88.58368194441877,41.30747407410831]],[[-88.57404672161984,41.313479339347154],[-88.56756707478999,41.31639093273792],[-88.56271919880623,41.31932106991928],[-88.57313694282412,41.31408364497059],[-88.57404672161984,41.313479339347154]],[[-88.55719953110432,41.32260233346393],[-88.55529037131743,41.322819673049835],[-88.55245324008261,41.32392750524629],[-88.55641975527878,41.3231189829641],[-88.55719953110432,41.32260233346393]],[[-88.54772964408527,41.325088579751025],[-88.54771979622262,41.3250909192985],[-88.54772408962695,41.32509431655889],[-88.54772964408527,41.325088579751025]],[[-88.50358952780157,41.331714846308614],[-88.50318096312245,41.33207947930181],[-88.50369342447458,41.33195534270099],[-88.50358952780157,41.331714846308614]],[[-88.50163898374814,41.33251809440129],[-88.49979525497805,41.33303501377313],[-88.49909868554329,41.333499393396295],[-88.50163898374814,41.33251809440129]],[[-88.4487317991475,41.348340580118396],[-88.44864432873973,41.34828631015737],[-88.44860714743696,41.3483498174225],[-88.4487317991475,41.348340580118396]],[[-88.44628360501362,41.34045475797955],[-88.4461706229287,41.338514708792054],[-88.44629943716731,41.338057942732654],[-88.44713891810558,41.33738264241332],[-88.44789992240261,41.3373160363988],[-88.44879155520049,41.337962923129844],[-88.44907488933409,41.33834976360024],[-88.44914556941517,41.33882402946127],[-88.44881142931824,41.34057669188018],[-88.44892051650804,41.341493024274506],[-88.44941783081815,41.34141588981008],[-88.44904345253137,41.340859925915325],[-88.44896226179591,41.34039278038904],[-88.44953440161424,41.33872898105788],[-88.44968519050416,41.336446008072116],[-88.43796187060501,41.336883904031644],[-88.43752460877394,41.33703105945556],[-88.43727120967668,41.33763475538513],[-88.43681480109022,41.33798494180908],[-88.4346156140899,41.33800180972914],[-88.43394983504892,41.33865131852123],[-88.43416970530424,41.33927572440178],[-88.43400808730647,41.339845536127825],[-88.43276803227964,41.340776628223956],[-88.43277211785757,41.3410483191561],[-88.43293598653689,41.34116088981407],[-88.43329219794717,41.3406809952122],[-88.43404233097581,41.34036096316586],[-88.43588865816119,41.340560011607],[-88.43592730310763,41.340026349630406],[-88.43619244165522,41.33962453097316],[-88.43742898134985,41.33922042004754],[-88.43804361061346,41.3394546468931],[-88.43903347760985,41.3406494166519],[-88.44136211490242,41.34100224048411],[-88.44188660405109,41.34080509208071],[-88.44189609015304,41.339813794426945],[-88.44145259942779,41.33902205621815],[-88.44164207392991,41.338360716142006],[-88.44221391664,41.33797826719354],[-88.44384907628006,41.33775083772632],[-88.44431993358039,41.33784713948118],[-88.44588606349303,41.33867308749884],[-88.44614975636678,41.33937207276777],[-88.44590548934575,41.34012578256187],[-88.44628360501362,41.34045475797955]],[[-88.47249774433797,41.330552663844955],[-88.47294741960893,41.330708300899104],[-88.47328283843251,41.331031833318846],[-88.47376698345845,41.33253773472935],[-88.47443956446187,41.33350296982523],[-88.4758954044021,41.33280358463239],[-88.47753883716359,41.33327866306123],[-88.47807275556669,41.33308236953068],[-88.47827094942535,41.33261873618173],[-88.47864853965056,41.33231315316957],[-88.47970865192904,41.332191918344606],[-88.4818530179845,41.33093097993621],[-88.48316650462478,41.33105017832082],[-88.48348483327189,41.33055233483934],[-88.48390265683264,41.33032367992145],[-88.48521173216744,41.330501056177766],[-88.4862790638216,41.33033209800159],[-88.48727034860018,41.33099215238335],[-88.4881281444322,41.33085437170567],[-88.48832430515498,41.330414302291906],[-88.48877652874133,41.33008083681159],[-88.49121314884775,41.3296675074942],[-88.49141320013172,41.329453816349975],[-88.49085776362689,41.3290899096744],[-88.48626758502652,41.32983834060556],[-88.48512942342218,41.32977063016139],[-88.48414498203293,41.329330185143384],[-88.48313022787708,41.32973876059984],[-88.48001651912112,41.32957815161783],[-88.47954465300589,41.32937034680557],[-88.47897366236913,41.32881327355972],[-88.4781310708734,41.329009820828034],[-88.47721338030917,41.32882625611951],[-88.4730327852098,41.329383261528555],[-88.47296684780699,41.330092339248885],[-88.47249774433797,41.330552663844955]],[[-88.40089785850192,41.360049405998936],[-88.40071853685022,41.36010939035426],[-88.40080373962051,41.36014489150855],[-88.40089785850192,41.360049405998936]],[[-88.38116296843332,41.363886518404776],[-88.37921300816599,41.36377955855889],[-88.37897354038203,41.364325788843686],[-88.3790623568932,41.36431362484324],[-88.38116296843332,41.363886518404776]],[[-88.37172649680083,41.36607574560186],[-88.37149484768013,41.36599993549584],[-88.37024693328483,41.36660606534499],[-88.37092801282009,41.36641456818123],[-88.37172649680083,41.36607574560186]],[[-88.344266282974,41.376883169142914],[-88.34335335753264,41.37715883682521],[-88.34292884353799,41.37738505338897],[-88.34300892315464,41.377374476835826],[-88.344266282974,41.376883169142914]],[[-88.29227532154542,41.397160520218286],[-88.2893143632637,41.39788644846412],[-88.28946765035823,41.398488511040924],[-88.28927750953868,41.39900820386866],[-88.28973422754308,41.398880645389106],[-88.29227532154542,41.397160520218286]],[[-88.28294830893239,41.39879116304978],[-88.28112949174817,41.39896675394225],[-88.28017100307147,41.39864736592852],[-88.2777983066464,41.39861297902381],[-88.27679494491838,41.398994478036016],[-88.27261671482779,41.39941563943104],[-88.2713543209419,41.39917433572399],[-88.26867344622451,41.398996529958296],[-88.26776359919855,41.39829137427168],[-88.26713814187967,41.39829510638005],[-88.2667135943948,41.39805721891144],[-88.2646837614107,41.396134295954475],[-88.26372105766697,41.39445973919304],[-88.26130199786091,41.39214225206563],[-88.26057329293275,41.39055457703691],[-88.2607683332036,41.38915680419061],[-88.26058257941098,41.388401884281755],[-88.26095291387813,41.38737814426567],[-88.2622528547922,41.38611869996859],[-88.26371261608436,41.38430929525317],[-88.26392197988115,41.38356003596536],[-88.26462718533915,41.38287561354743],[-88.26462157843756,41.38198411619433],[-88.26340448203636,41.37967493290961],[-88.26347744731726,41.378652292741705],[-88.26304288772839,41.378395879726334],[-88.26277376809892,41.377983489086965],[-88.26228912226424,41.37591476391491],[-88.26233067024606,41.37546820150083],[-88.26168797884746,41.37413752130327],[-88.26007457637031,41.372423356461205],[-88.2592007637666,41.36989959460246],[-88.25685481535386,41.36787752712729],[-88.25561864930451,41.367387583266265],[-88.2541954044523,41.36834976735943],[-88.253603231209,41.368463159125945],[-88.25112271210637,41.36737654068353],[-88.25058329742508,41.366458737717615],[-88.2497368222689,41.36689964021823],[-88.24823485526916,41.366599335598075],[-88.25231811359971,41.3680828882184],[-88.25473798191454,41.37111167929338],[-88.25995083160647,41.373699506321955],[-88.26039251165462,41.37513785002881],[-88.26029284671996,41.375709286882994],[-88.2610810322351,41.37715051364349],[-88.26115472889268,41.37791095240118],[-88.26173410062998,41.378744512591744],[-88.26257995504723,41.381519481746714],[-88.26227105223552,41.383802290946],[-88.26091653784756,41.38568534295079],[-88.2604259508681,41.385986689791565],[-88.25975994338789,41.38593206007196],[-88.25912356427341,41.38523649785736],[-88.25818749077112,41.385014552822845],[-88.25767893311357,41.3839514096174],[-88.25636409463846,41.382925370305145],[-88.25651139043623,41.384000084088896],[-88.25695021569052,41.384697041845705],[-88.25894059645128,41.386040712509434],[-88.25906808545058,41.3867039062779],[-88.25871887267509,41.38732010305481],[-88.25917457598604,41.387570580651065],[-88.25945697871371,41.388076663193594],[-88.25944242748398,41.38856153883352],[-88.25904690466423,41.389527348685014],[-88.25774165492538,41.39076011217763],[-88.25690672411713,41.39073638523619],[-88.25578867476594,41.38990198082314],[-88.25547835578253,41.389299002891335],[-88.25558590677865,41.388704443217],[-88.25105864328714,41.38738351147429],[-88.2499258407259,41.386757950254356],[-88.24937438462526,41.38677421645577],[-88.24895863188166,41.38656577613408],[-88.2485780473345,41.386656137443794],[-88.24802779665613,41.387555200716385],[-88.25017146210548,41.38904463060653],[-88.25420442373213,41.39120102377894],[-88.25884998542762,41.39551174158446],[-88.2627241610917,41.397921054808386],[-88.26463929670439,41.39874447060322],[-88.26984358155603,41.399908460375954],[-88.27702000160916,41.39981501272462],[-88.2801512929307,41.40085443885313],[-88.28207945881539,41.40044729167284],[-88.28382142311308,41.400532054652054],[-88.28454842339524,41.40032900802429],[-88.28412378849751,41.400243779084484],[-88.28331891885686,41.399753109954325],[-88.28294830893239,41.39879116304978]],[[-88.2475139349236,41.38549971363332],[-88.2470159280852,41.38518990567236],[-88.24670054737238,41.38465624619729],[-88.24508515346224,41.38346994129452],[-88.2425128656804,41.38248261632195],[-88.24069973840227,41.38251731732249],[-88.23818387136782,41.383237823844084],[-88.24078772086288,41.382730002597235],[-88.24290415065374,41.38312902827582],[-88.24570445889587,41.38454121247583],[-88.24664104406622,41.38542435614923],[-88.2475139349236,41.38549971363332]],[[-88.23720077240085,41.38351936861866],[-88.23449847855844,41.384710319816556],[-88.23377360695906,41.38524642277026],[-88.23287439097284,41.38673450586249],[-88.23277747479104,41.38835777685849],[-88.23250759784315,41.38889645770547],[-88.23131528182154,41.38943444242572],[-88.23084593616797,41.389371373999104],[-88.23035131271264,41.389080167690956],[-88.23004096503148,41.3891538095136],[-88.23043887621057,41.3895056777578],[-88.23059862258168,41.39008720706451],[-88.2317924967054,41.39086434155484],[-88.23396948416384,41.386144283277225],[-88.23532895489123,41.38461858347604],[-88.23720077240085,41.38351936861866]],[[-88.2274691744976,41.386817575284695],[-88.22766831975912,41.386667494797756],[-88.22804358162674,41.384497150981204],[-88.22774307665979,41.3840303406981],[-88.22695366751083,41.38006067874378],[-88.22673979614396,41.379828860129344],[-88.22691911043513,41.380552824774064],[-88.22691780118623,41.38159627814684],[-88.22668020772458,41.382178097566786],[-88.2274691744976,41.386817575284695]],[[-88.2306077891219,41.39272191703768],[-88.22957235131807,41.393132486853794],[-88.22890761819171,41.39298684308461],[-88.22867795544184,41.393364954660925],[-88.22870336125766,41.39383166077439],[-88.22850551083953,41.39426884789812],[-88.2270430953659,41.39554971416278],[-88.22662121960357,41.39643888933839],[-88.22551069030594,41.39708466838933],[-88.22431063663215,41.398656937648624],[-88.2187606805077,41.4019006400363],[-88.21700636806737,41.40411256230346],[-88.2169488295623,41.40558905065148],[-88.21627759243272,41.408063593734916],[-88.21418438091204,41.41190049048997],[-88.21272669441733,41.41517274919245],[-88.21085348776005,41.41624050967721],[-88.20579559583697,41.41803422098024],[-88.20230977222866,41.41806],[-88.20066730321419,41.41842499311432],[-88.19541473555144,41.42132391350638],[-88.19583083504219,41.42149735916979],[-88.19623369106564,41.42110537805944],[-88.19725286896433,41.42078735968722],[-88.19774137427972,41.42037042209668],[-88.19850757375164,41.42008678045996],[-88.19898718020877,41.42011517859078],[-88.20054643362863,41.420937204309396],[-88.20182048731276,41.421088551667616],[-88.20372733408811,41.42216651227547],[-88.20441729083625,41.42299270210176],[-88.20505745683006,41.42292165200823],[-88.20552591589086,41.42306946341893],[-88.20594854728498,41.423603364486894],[-88.20595012396223,41.424228047299906],[-88.21938923217186,41.41753712765859],[-88.21970319066727,41.41727501552022],[-88.21901808384841,41.41674049267261],[-88.21879479696447,41.41632906437965],[-88.21809011217599,41.416413217133204],[-88.2174636389311,41.41595637749723],[-88.21672962869357,41.41319161855823],[-88.21725928038313,41.41004457985494],[-88.21749836551801,41.40957068534631],[-88.21737402114168,41.40916958858067],[-88.21745311919828,41.40868083888535],[-88.2187488816635,41.40688194194663],[-88.21912288442893,41.40544911837682],[-88.22031499456148,41.40341673256961],[-88.2215654984582,41.40268254028849],[-88.22153637454403,41.40189977524487],[-88.22174757118918,41.401444898644144],[-88.22554300649868,41.397680975514305],[-88.22662688248361,41.39710570434119],[-88.2276737503862,41.39554720089807],[-88.2288339271449,41.39512157332021],[-88.22931815062877,41.395216292614236],[-88.22966971824167,41.395495838747586],[-88.22979477802022,41.394035938072435],[-88.2306077891219,41.39272191703768]],[[-88.22426215622855,41.40424601757643],[-88.22428583767399,41.40483914781017],[-88.22327673190739,41.40752473173547],[-88.22333481483157,41.40910458727347],[-88.22419939471061,41.40572049787985],[-88.22522600157009,41.40426810171638],[-88.22426215622855,41.40424601757643]],[[-88.19432859586605,41.42192335985049],[-88.19318726632525,41.42255326577313],[-88.19422920594556,41.42224115727673],[-88.19432859586605,41.42192335985049]],[[-88.1811715330183,41.429732143971094],[-88.18031331294905,41.430192806214144],[-88.18004162778388,41.4306003339619],[-88.1811715330183,41.429732143971094]],[[-88.17790310189379,41.432173092986886],[-88.17442899387004,41.43273575455006],[-88.1747039719906,41.433324627806705],[-88.17542263875839,41.43284603375704],[-88.176193111147,41.43264296032963],[-88.1767281935864,41.43275257264981],[-88.17790310189379,41.432173092986886]],[[-88.17061058316776,41.434294184792],[-88.17008800228689,41.43470645542296],[-88.17024768218506,41.43467659658021],[-88.17061058316776,41.434294184792]],[[-88.16669744335005,41.445117784096304],[-88.16705153333088,41.446671291192644],[-88.16657856710624,41.4476175613604],[-88.16620189446401,41.44790568599411],[-88.16573443557252,41.44800635588344],[-88.16520693408948,41.44875764587443],[-88.16539357398733,41.45097298031415],[-88.16621436754642,41.45299543387326],[-88.16656024842987,41.455287383684265],[-88.16764904884212,41.457154870986294],[-88.16806822978843,41.45939297674744],[-88.16748205306618,41.462901625144994],[-88.16568849622077,41.46493984581882],[-88.16388852060221,41.46749164905894],[-88.16349753636709,41.46777000914988],[-88.15902256558887,41.469538501968344],[-88.15599325395833,41.47158772920758],[-88.15012667025763,41.47323737547991],[-88.13943810141528,41.47957537051039],[-88.13103623855251,41.484772629042304],[-88.13856692841995,41.480728976004784],[-88.14047145992727,41.47988377444061],[-88.14706154643711,41.47579124615539],[-88.14794161685359,41.47571424885222],[-88.1528348583763,41.47292137978619],[-88.15715661193316,41.4721128932043],[-88.15733820230014,41.47169240444405],[-88.15770763680085,41.47138830045802],[-88.15986640089508,41.47080900795609],[-88.16344128614914,41.46863622055493],[-88.16412088378974,41.46790778137325],[-88.16553349244626,41.46727907551664],[-88.16727450203066,41.46521128805904],[-88.16977096775935,41.46313168455618],[-88.17004828305116,41.46271879289949],[-88.16970353769474,41.46083426783185],[-88.16729259104925,41.45603404897815],[-88.166589520892,41.45290766312732],[-88.16645104875953,41.45022175883176],[-88.1671688740438,41.44744530224335],[-88.16764464251266,41.44654707811708],[-88.16740263421013,41.446178346631946],[-88.16727306711923,41.4455011318989],[-88.16738705775018,41.44481263275448],[-88.16669744335005,41.445117784096304]],[[-88.12843115198636,41.486384094095165],[-88.12825126104076,41.48649537176859],[-88.12812984039225,41.48662041691407],[-88.12843115198636,41.486384094095165]],[[-88.12656276553778,41.488234270122405],[-88.12585064353927,41.48896764949402],[-88.12605299385864,41.48903880773848],[-88.12656276553778,41.488234270122405]],[[-88.12226304235189,41.49156741499577],[-88.12213155102697,41.4915298828328],[-88.12087778833626,41.492555688670656],[-88.12089929241317,41.492770225500735],[-88.12226304235189,41.49156741499577]],[[-88.1114476092778,41.49705122023637],[-88.11018486441985,41.49720962908952],[-88.10974745710611,41.49735772762882],[-88.11043673152304,41.4977606408027],[-88.11159547635782,41.497215717556074],[-88.1114476092778,41.49705122023637]],[[-88.10790291342006,41.497982258168186],[-88.10533083055456,41.49885312087068],[-88.1052115150029,41.49893466747073],[-88.10555118643289,41.49947415277021],[-88.10790291342006,41.497982258168186]],[[-88.10214768248542,41.50025119787487],[-88.10116896274772,41.50048649111104],[-88.10082727828015,41.50157361191506],[-88.09905280884578,41.503468788644376],[-88.09665726891248,41.504653577357146],[-88.09665116245444,41.5050984187222],[-88.0964247277215,41.505527368429604],[-88.0939687564137,41.507395791367976],[-88.09289547426911,41.50901880339149],[-88.09211494867888,41.51102871259526],[-88.09032008724667,41.5129471502995],[-88.09012205381596,41.51344169280132],[-88.09199707171916,41.51136062897469],[-88.09409906090124,41.509592408264965],[-88.0965378799267,41.5079584657486],[-88.09717994129626,41.50784],[-88.09872927685026,41.506578684448485],[-88.10002709931443,41.505988875033346],[-88.10035151090773,41.50541740972943],[-88.101126602011,41.505018817376616],[-88.10079664899017,41.50451361334231],[-88.1003446288835,41.50441415220719],[-88.09996310087476,41.504117081653185],[-88.09977282363609,41.50328757035567],[-88.10009142688992,41.50256436259477],[-88.10098868011063,41.502024954718095],[-88.10132186367142,41.501364097554564],[-88.10226419427153,41.500569767430235],[-88.10214768248542,41.50025119787487]],[[-88.06676463572416,41.58831868975344],[-88.0669837033687,41.58823549950868],[-88.06746412278562,41.58616611430498],[-88.0668090879074,41.58794505113215],[-88.06676463572416,41.58831868975344]],[[-88.06965631746347,41.63422013302074],[-88.06928297895098,41.63380917182882],[-88.06880657864681,41.635474470114175],[-88.06941702433795,41.63546207671005],[-88.07022040366202,41.635949220843706],[-88.07007804354002,41.63448921186824],[-88.06965631746347,41.63422013302074]],[[-88.06306979174457,41.653311635936696],[-88.0622564199886,41.65350897850373],[-88.06220401766218,41.653705169610504],[-88.06306979174457,41.653311635936696]],[[-88.06118202782751,41.655433515714506],[-88.06012531895736,41.65618967585636],[-88.05918973943427,41.6563459677763],[-88.05830402792155,41.65747871447285],[-88.05832504996636,41.65791226887061],[-88.05812908412271,41.65835428515144],[-88.05709578083453,41.6592747742946],[-88.05757915089893,41.65952663553869],[-88.06036076976346,41.65715765025114],[-88.06057700475957,41.656531951732504],[-88.06109329027747,41.65599880677407],[-88.06118202782751,41.655433515714506]],[[-87.98409750376445,41.68800652072588],[-87.98270483576025,41.688453563794006],[-87.98268122943803,41.68889574982765],[-87.98243717160032,41.68931689661765],[-87.98137230750571,41.689964434680434],[-87.98190170771959,41.69025590674358],[-87.98454155335229,41.68940332000939],[-87.98411795489375,41.68851289047901],[-87.98409750376445,41.68800652072588]],[[-88.24619319927626,41.36573911787306],[-88.24486584200271,41.36400001357258],[-88.2443369472101,41.362534242360454],[-88.24440078724565,41.36349899757879],[-88.24381431388804,41.364094496433374],[-88.24401636496339,41.36478136396858],[-88.24437748212596,41.365273366671225],[-88.24544046724,41.365436919915275],[-88.24619319927626,41.36573911787306]],[[-88.2407316453256,41.360813067750314],[-88.24134857420069,41.36001247291776],[-88.2421805224363,41.35987728632946],[-88.24387695687652,41.361323301816576],[-88.24419061803772,41.36193266687402],[-88.24426693140757,41.361204035782215],[-88.24382161487077,41.35984371034768],[-88.23959903497352,41.358070798697824],[-88.23618207724559,41.357551411360724],[-88.23170419386956,41.35568257987715],[-88.23112572836885,41.35530974513416],[-88.23148088261995,41.35578126722113],[-88.23163834912206,41.356577437187106],[-88.23148643184881,41.35705249706602],[-88.23100517456302,41.357584938453456],[-88.23435483435718,41.359134227570856],[-88.23468473456437,41.35971593725918],[-88.234524235207,41.360456032366834],[-88.23914267403897,41.360353423358056],[-88.2407316453256,41.360813067750314]],[[-88.22640498151767,41.3566421644174],[-88.2233540105188,41.35809524144079],[-88.22091525290072,41.35858997425818],[-88.22612650699931,41.35934965537546],[-88.22582180563298,41.35838993332336],[-88.22640498151767,41.3566421644174]],[[-88.2150941607087,41.358073383794796],[-88.21260779430021,41.35760837633672],[-88.2138308904476,41.358213747157144],[-88.2150941607087,41.358073383794796]],[[-88.2082949678927,41.35643856602201],[-88.20789131052705,41.35628345694169],[-88.20787431553136,41.356275981160294],[-88.20794873626114,41.35635709975576],[-88.2082949678927,41.35643856602201]],[[-88.19695359652096,41.35193571191994],[-88.19356834982767,41.35098864885694],[-88.1958076087049,41.351913788674764],[-88.19695359652096,41.35193571191994]],[[-88.19229237736594,41.35046148652533],[-88.19172758467167,41.350116777369195],[-88.19191097743986,41.35030391284695],[-88.19229237736594,41.35046148652533]],[[-88.18767531693318,41.344730416002434],[-88.1876530300038,41.343681481471585],[-88.1872225013578,41.34247431291512],[-88.18585507249001,41.33989547055376],[-88.18596794258647,41.340994072825936],[-88.18767531693318,41.344730416002434]],[[-88.1854583368564,41.337543916855196],[-88.18532152557889,41.335968612025596],[-88.18567792076122,41.333665347163794],[-88.18629310987343,41.33180839271956],[-88.18570137137874,41.33258081472406],[-88.18491399358753,41.33483796439221],[-88.18494571593462,41.336186164143456],[-88.1854583368564,41.337543916855196]],[[-88.17712475432273,41.324571344742466],[-88.17685765030566,41.32449603345946],[-88.17386542987924,41.32441001480244],[-88.17391625310151,41.324602444915854],[-88.17712475432273,41.324571344742466]],[[-88.1668540736149,41.32324883589291],[-88.16643228698688,41.32321146239423],[-88.16565493136038,41.32323716010089],[-88.16661790488159,41.32365812225932],[-88.1668540736149,41.32324883589291]],[[-88.15295935634295,41.31465180311606],[-88.15337508715415,41.314467245076614],[-88.15386021124938,41.31449612725914],[-88.15514309343861,41.31532060569645],[-88.15507319510252,41.315099260965496],[-88.15153831106467,41.312766081435],[-88.15295935634295,41.31465180311606]],[[-88.1508820312833,41.30360234405821],[-88.15090238825985,41.303111937931824],[-88.15171511376583,41.30047419279463],[-88.15324458878128,41.29908616470444],[-88.1537921417802,41.298849767741245],[-88.15542642800399,41.29526271900391],[-88.15522606531967,41.292039493212485],[-88.15476746075178,41.29122001947644],[-88.15174145744399,41.28737532211271],[-88.15067669804196,41.28487842007685],[-88.14963859539732,41.28115289282878],[-88.14727207837865,41.276857029906715],[-88.14715012471116,41.275474207382494],[-88.14732738565941,41.274495165899964],[-88.14692410864357,41.275562374588226],[-88.14746257665878,41.27847010187031],[-88.14983052742286,41.28610991009682],[-88.15127528587317,41.288222183527346],[-88.15309480210013,41.290099449862765],[-88.15326153515474,41.29128503213939],[-88.1539564950089,41.29219995387931],[-88.15453278671089,41.293980106102346],[-88.15403035838843,41.296542031160534],[-88.15263108683749,41.29868228442459],[-88.1512060052249,41.299695220419984],[-88.15070585536995,41.30311588817805],[-88.1508820312833,41.30360234405821]],[[-88.14789325817202,41.271634012746354],[-88.14800842052689,41.271051731176755],[-88.14782859115552,41.27049947411316],[-88.14791998278433,41.27132413220462],[-88.14789325817202,41.271634012746354]],[[-88.14673254603535,41.26713351306366],[-88.14646222076024,41.26630334254422],[-88.14519290954499,41.264846616250225],[-88.142609176129,41.26311232943675],[-88.14392951616306,41.26402830961782],[-88.14673254603535,41.26713351306366]],[[-88.13993754035391,41.26127596369709],[-88.13894281389054,41.2603930703864],[-88.13956382012341,41.26101908473406],[-88.13993754035391,41.26127596369709]],[[-88.1371274339665,41.257581108072614],[-88.13636788878657,41.255024223308496],[-88.13584736916532,41.25481140001508],[-88.13606926004572,41.25574693994327],[-88.1371274339665,41.257581108072614]],[[-88.06455285862691,41.227831489059426],[-88.06408048614796,41.227661100274744],[-88.06387595011635,41.22765063564057],[-88.06455285862691,41.227831489059426]],[[-88.04640350726835,41.22609784341176],[-88.04362404386076,41.224816615002425],[-88.04199825133733,41.22357158646854],[-88.03655268353333,41.217430277502466],[-88.03641894719529,41.21782972653629],[-88.03863365138105,41.21992272563123],[-88.03940019826197,41.22152036744031],[-88.04094559975927,41.22311905864441],[-88.04479919077606,41.2257101039491],[-88.04640350726835,41.22609784341176]],[[-88.03244027472643,41.214081542679416],[-88.03292029689895,41.21368930674201],[-88.03239058545392,41.21319104691404],[-88.03151452833563,41.21320942573471],[-88.03244027472643,41.214081542679416]],[[-88.02956283136906,41.211901269387674],[-88.02949839935908,41.21141085114771],[-88.02805707659923,41.210957814018094],[-88.02956283136906,41.211901269387674]],[[-87.96195410193927,41.18495852706516],[-87.96344159693534,41.18490003530637],[-87.96383320116844,41.1849767770999],[-87.96346879360406,41.1845388036892],[-87.96156808253134,41.183389704599605],[-87.96195410193927,41.18495852706516]],[[-88.23031602604948,41.360864131524416],[-88.23037884558615,41.360942217550715],[-88.23091704403993,41.360868731151896],[-88.23031602604948,41.360864131524416]],[[-88.25881100856346,41.364167300522546],[-88.25996708758812,41.35989017541195],[-88.26219540710122,41.35679510123867],[-88.26202129652651,41.35278909447912],[-88.2624934103644,41.34970957189827],[-88.26404678358116,41.34801791194856],[-88.25024972950342,41.34829419838816],[-88.24982401414074,41.34856443509665],[-88.2504250673175,41.36248112788167],[-88.25280861116589,41.363821871296395],[-88.25791973758174,41.364456230957934],[-88.25881100856346,41.364167300522546]],[[-88.2587213259865,41.38168605132211],[-88.2587996070285,41.38153307205359],[-88.25826799445207,41.381376004701465],[-88.2582821458096,41.38140909710679],[-88.2587213259865,41.38168605132211]]],[[[-88.16187292968003,42.45026191533751],[-88.16278848825843,42.4504503675977],[-88.16329156524002,42.45088972045486],[-88.16340582181806,42.45154779553938],[-88.16300421580931,42.45219159835396],[-88.16197836248769,42.45278828014891],[-88.16151672735002,42.45287906330018],[-88.16003929380784,42.45229176774659],[-88.15966527502324,42.45199984410206],[-88.15946870105176,42.45118751006728],[-88.15996014046685,42.45013329093703],[-88.1604095550956,42.449926414906336],[-88.1611941159793,42.449876532565575],[-88.16187292968003,42.45026191533751]]],[[[-88.16572896381513,42.44285437774519],[-88.16618283630416,42.443057647817014],[-88.16648266956719,42.44345440841584],[-88.16655430915392,42.44394653312362],[-88.16641229565535,42.444590695630495],[-88.1657464674756,42.44509628982992],[-88.16466735980045,42.444946699310655],[-88.16413680962394,42.44428000106945],[-88.16431116680448,42.44334170913012],[-88.16489052545407,42.44283240514221],[-88.16572896381513,42.44285437774519]]],[[[-88.1932388050076,42.3814553122125],[-88.19108646014082,42.38308472897833],[-88.18971621317775,42.384639651881294],[-88.18809952685197,42.38551408787066],[-88.18752871476153,42.385522498997084],[-88.1869847353318,42.38513882591228],[-88.18590993782226,42.38485796730438],[-88.18540388759764,42.38428383841975],[-88.18532207206279,42.383045658472646],[-88.18547418932295,42.382576516824464],[-88.18611079772502,42.38213212761153],[-88.18728003873673,42.38213354907462],[-88.18721192682939,42.38139347635393],[-88.18761960215686,42.38084509748218],[-88.19012345346574,42.37981899947222],[-88.19075662451348,42.379790248836606],[-88.19133631466893,42.379162444463475],[-88.19365599101258,42.37848707543903],[-88.19414113689118,42.37851641907906],[-88.19472727434893,42.37900875794889],[-88.1947935092476,42.37977136375815],[-88.1932388050076,42.3814553122125]]]]}}